{
"type": "FeatureCollection",
"name": "linElect",
"crs": { "type": "name", "properties": { "name": "urn:ogc:def:crs:OGC:1.3:CRS84" } },
"features": [
{ "type": "Feature", "properties": { "OBJECTID_1": 1, "fid_1": 49, "OBJECTID": 49.0, "Codigo": "AVI-BLV069", "SHAPE_Leng": 0.07372329975, "AREA": "ORURO", "PROPIETARI": "ENDE DEORURO", "STI": "NO", "TRAMO": "LT1 Avicaya - Bolivar en 69 kV", "TIPO": "Conductor Raven (1/0) H1", "N_CIRCU": 1.0, "Un": 69.0, "Long": 7.97, "Pn": 31.0, "NODO_1": "AVI06901", "INTERR_1": null, "NODO_2": "BLV06901", "INTERR_2": null, "In_": 276.0, "Sbase": 100.0, "R1": 4.1663797, "X1": 3.8362567, "C1": 6.139e-08, "R0": 6.018104, "X0": 10.3021137, "C0": 5.2e-08, "Zc": 446.0132528, "Sn": 33.0, "SOBCAR15": 42.0, "SOBCAR30": 0.0, "R11": 8.75106, "X11": 8.05767, "Qvacio": 0.09182, "Shape_Le_1": 8023.1060456499999 }, "geometry": { "type": "MultiLineString", "coordinates": [ [ [ -66.844527380396983, -18.467412680007435 ], [ -66.846313480194269, -18.467712400114472 ], [ -66.854492189704047, -18.47180176010955 ], [ -66.868713380223426, -18.491210939782036 ], [ -66.87988280985239, -18.506591799891034 ], [ -66.88220214977575, -18.510375980141596 ], [ -66.887791970243612, -18.523737739926279 ], [ -66.888050850460999, -18.524037959786359 ], [ -66.888252320138861, -18.524359319569868 ] ] ] } },
{ "type": "Feature", "properties": { "OBJECTID_1": 2, "fid_1": 65, "OBJECTID": 66.0, "Codigo": "NOR-TNO069", "SHAPE_Leng": 0.01743621477, "AREA": "ORURO", "PROPIETARI": "ENDE DEORURO", "STI": "NO", "TRAMO": "LT1 Norte - Tap Norte en 69 kV", "TIPO": "Conductor Penguin (4/0) H1", "N_CIRCU": 1.0, "Un": 69.0, "Long": 1.2, "Pn": 31.0, "NODO_1": "NOR06901", "INTERR_1": null, "NODO_2": "TNO06901", "INTERR_2": null, "In_": 276.0, "Sbase": 100.0, "R1": 0.3316513, "X1": 0.5673208, "C1": 1.049e-08, "R0": 0.6830702, "X0": 1.6445446, "C0": 8.0000000000000005e-09, "Zc": 414.8287874, "Sn": 33.0, "SOBCAR15": 42.0, "SOBCAR30": 0.0, "R11": 0.6966, "X11": 1.1916, "Qvacio": 0.0157, "Shape_Le_1": 1861.4925058 }, "geometry": { "type": "MultiLineString", "coordinates": [ [ [ -67.08468517032118, -17.952664249892397 ], [ -67.092010219821375, -17.949109210126988 ], [ -67.097691030311168, -17.951418860147072 ], [ -67.098474520232529, -17.951776909691414 ], [ -67.099178670260031, -17.952067500380213 ], [ -67.100010290129248, -17.952445830163892 ], [ -67.100582519543991, -17.952696849840862 ] ] ] } },
{ "type": "Feature", "properties": { "OBJECTID_1": 3, "fid_1": 78, "OBJECTID": 79.0, "Codigo": "SOC-TNO069", "SHAPE_Leng": 0.02038297713, "AREA": "ORURO", "PROPIETARI": "ENDE DEORURO", "STI": "NO", "TRAMO": "LT1 Socomani - Tap Norte en 69 kV", "TIPO": "Conductor Penguin (4/0) H1", "N_CIRCU": 1.0, "Un": 69.0, "Long": 1.81, "Pn": 31.0, "NODO_1": "SOC06901", "INTERR_1": "L1B11", "NODO_2": "TNO06901", "INTERR_2": null, "In_": 276.0, "Sbase": 100.0, "R1": 0.5002407, "X1": 0.8557088, "C1": 1.583e-08, "R0": 1.0302975, "X0": 2.4805215, "C0": 1.1e-08, "Zc": 414.8346665, "Sn": 33.0, "SOBCAR15": 42.0, "SOBCAR30": 0.0, "R11": 1.05071, "X11": 1.79733, "Qvacio": 0.02368, "Shape_Le_1": 2230.7547992999998 }, "geometry": { "type": "MultiLineString", "coordinates": [ [ [ -67.074145659857876, -17.935225400128846 ], [ -67.079058189667023, -17.943856809555371 ], [ -67.08468517032118, -17.952664249892397 ] ] ] } },
{ "type": "Feature", "properties": { "OBJECTID_1": 4, "fid_1": 32, "OBJECTID": 32.0, "Codigo": "TES-VIN069", "SHAPE_Leng": 0.01054998507, "AREA": "ORURO", "PROPIETARI": "ENDE DEORURO", "STI": "NO", "TRAMO": "LT1 Tesa - Vinto en 69 kV", "TIPO": "Conductor Ibis (397) t1", "N_CIRCU": 1.0, "Un": 69.0, "Long": 1.02, "Pn": 51.0, "NODO_1": "TES06901", "INTERR_1": null, "NODO_2": "VIN06901", "INTERR_2": "B254, B256", "In_": 452.0, "Sbase": 100.0, "R1": 0.1475339, "X1": 0.4140623, "C1": 9.36e-09, "R0": 0.3570803, "X0": 1.3568279, "C0": 5.0000000000000001e-09, "Zc": 375.267423, "Sn": 54.0, "SOBCAR15": 68.0, "SOBCAR30": 0.0, "R11": 0.30988, "X11": 0.8697, "Qvacio": 0.014, "Shape_Le_1": 1159.58768981 }, "geometry": { "type": "MultiLineString", "coordinates": [ [ [ -67.044749730032819, -17.978745239639753 ], [ -67.04397235992009, -17.977699289599169 ], [ -67.043832729540142, -17.974501990068511 ], [ -67.043832509772059, -17.971573809745312 ], [ -67.043828609606194, -17.97034034986784 ], [ -67.045380000379069, -17.969270000428015 ] ] ] } },
{ "type": "Feature", "properties": { "OBJECTID_1": 5, "fid_1": 39, "OBJECTID": 39.0, "Codigo": "SUD-CRQ069", "SHAPE_Leng": 0.70623250163999995, "AREA": "ORURO", "PROPIETARI": "ENDE DEORURO", "STI": "NO", "TRAMO": "LT1 Sud - Corque en 69 kV", "TIPO": "Conductor Quail (2/0)", "N_CIRCU": 1.0, "Un": 69.0, "Long": 73.6, "Pn": 28.5, "NODO_1": "SUD06901", "INTERR_1": "L4B1", "NODO_2": "CRQ06901", "INTERR_2": null, "In_": 251.0, "Sbase": 100.0, "R1": 37.328, "X1": 33.72183, "C1": 2.9974e-07, "R0": 57.394616, "X0": 98.666012, "C0": 1.93e-07, "Zc": 598.4261978, "Sn": 30.0, "SOBCAR15": 30.0, "SOBCAR30": 0.0, "R11": 78.4037, "X11": 70.8293, "Qvacio": 0.44832, "Shape_Le_1": 75866.268697799998 }, "geometry": { "type": "MultiLineString", "coordinates": [ [ [ -67.109539940224735, -17.983602749856573 ], [ -67.112099439972312, -17.99416192043919 ], [ -67.114102789621313, -17.997551299708803 ], [ -67.136132980419518, -18.010792350400937 ], [ -67.1391346003211, -18.021689839601361 ], [ -67.147373229888785, -18.032122550434082 ], [ -67.150577930113556, -18.031809899827685 ], [ -67.181438399747506, -18.048536690272162 ], [ -67.1920825903821, -18.052241409932304 ], [ -67.245445960047718, -18.078085420392281 ], [ -67.343506269546609, -18.132133769616889 ], [ -67.417765230282669, -18.173038829636408 ], [ -67.547472140417298, -18.25993149026025 ], [ -67.60551309046339, -18.302615810452181 ], [ -67.608135480435394, -18.304740340422626 ], [ -67.61182366006048, -18.310839409894403 ], [ -67.637070310373019, -18.352361510282652 ], [ -67.648240290146305, -18.359172979808015 ], [ -67.663869599847416, -18.358469979714894 ], [ -67.678961309905517, -18.346117540364315 ] ] ] } },
{ "type": "Feature", "properties": { "OBJECTID_1": 6, "fid_1": 66, "OBJECTID": 67.0, "Codigo": "SAN-PAG23001", "SHAPE_Leng": 1.0758372137600001, "AREA": "CENTRAL", "PROPIETARI": "ENDE TRANSMISI N", "STI": "SI", "TRAMO": "LT1 SantivMIez - Pagador en 230 kV", "TIPO": "Conductor AAAC PARAKEET 2x556,5 MCM", "N_CIRCU": 1.0, "Un": 230.0, "Long": 115.04, "Pn": 219.0, "NODO_1": "SAN23001", "INTERR_1": null, "NODO_2": "PAG23001", "INTERR_2": null, "In_": 580.0, "Sbase": 100.0, "R1": 5.94158592, "X1": 36.45514064, "C1": 1.32406e-06, "R0": 33.11380384, "X0": 115.0379293, "C0": 8.09e-07, "Zc": 296.0406649, "Sn": 231.0, "SOBCAR15": 268.0, "SOBCAR30": 263.0, "R11": 1.123173142, "X11": 6.891330934, "Qvacio": 22.0045103, "Shape_Le_1": 37407.505973200001 }, "geometry": { "type": "MultiLineString", "coordinates": [ [ [ -66.890066703127729, -17.654493704480966 ], [ -66.894300000249501, -17.653650000282255 ], [ -66.900516669617758, -17.652566669692611 ], [ -66.90744999975945, -17.652450000236204 ], [ -66.911200000106689, -17.652383329862417 ], [ -66.913116669784714, -17.65233332991026 ], [ -66.915200000194389, -17.65225000040175 ], [ -66.920099999851786, -17.652166670167261 ], [ -66.926066670157951, -17.652049999829071 ], [ -66.928983329880353, -17.651950000360092 ], [ -66.933616669911089, -17.651683329839269 ], [ -66.939216670295053, -17.651700000002375 ], [ -66.942599999927126, -17.6516666702306 ], [ -66.94446667002876, -17.651633330199555 ], [ -66.954000000152533, -17.651433329695116 ], [ -66.955550000162489, -17.651333329943697 ], [ -66.963233330012244, -17.651283329573825 ], [ -66.965750000013884, -17.652733329936723 ], [ -66.969250000111899, -17.654700000331705 ], [ -66.972100000274125, -17.6566666702142 ], [ -66.976966670132882, -17.659816669675479 ], [ -66.984600000332236, -17.666616669988784 ], [ -66.986766669738913, -17.668516670252608 ], [ -66.988916669609367, -17.670516670405462 ], [ -66.99343333033795, -17.674616670221223 ], [ -66.997849999558937, -17.678650000316516 ], [ -67.001066669595957, -17.681549999823449 ], [ -67.002283330023545, -17.684833329980798 ], [ -67.003516669536069, -17.687999999923161 ], [ -67.004616670376407, -17.690966670233319 ], [ -67.00645000031993, -17.695649999663932 ], [ -67.007533329730748, -17.6985000001477 ], [ -67.009799999546502, -17.704400000295074 ], [ -67.010099999953226, -17.707216670311265 ], [ -67.010666670200933, -17.711966670324276 ], [ -67.011100000426921, -17.715950000137198 ], [ -67.011550000286647, -17.719950000410268 ], [ -67.012016669941715, -17.723933330448581 ], [ -67.012516669555964, -17.728000000267187 ], [ -67.012916669865248, -17.730933329882895 ], [ -67.013349999530107, -17.734700000003972 ], [ -67.0136833295999, -17.738283330439799 ], [ -67.014199999937631, -17.742316669550021 ], [ -67.014583330029183, -17.745699999553381 ], [ -67.015166670376928, -17.750483330313671 ], [ -67.015566670468274, -17.753516669822631 ], [ -67.015916670089254, -17.757166670452502 ], [ -67.016450000350957, -17.762116670009174 ], [ -67.01684999955215, -17.765466669855265 ], [ -67.017216669656847, -17.769216669573328 ], [ -67.017666670269335, -17.773150000271819 ], [ -67.018049999764685, -17.776766670345136 ], [ -67.018550000350103, -17.781149999705494 ], [ -67.019000000153738, -17.785450000037404 ], [ -67.019433329810923, -17.789366669631725 ], [ -67.019883329907344, -17.793349999662212 ], [ -67.020300000174231, -17.797449999941882 ], [ -67.020733329743166, -17.801299999891672 ], [ -67.021166669930267, -17.805300000297365 ], [ -67.021583329965836, -17.809300000147605 ], [ -67.022016670034745, -17.813183329761877 ], [ -67.020315869684254, -17.815140883057325 ], [ -67.02275835872959, -17.815135587380698 ], [ -67.024654323131102, -17.815131476630004 ], [ -67.025524803178129, -17.815129589899026 ], [ -67.028137239599857, -17.815123926381812 ], [ -67.029914482466978, -17.81512007172439 ], [ -67.039728421757246, -17.815098794924857 ], [ -67.0531115378095, -17.815069778588683 ], [ -67.075718245616443, -17.815020765887429 ], [ -67.107865820710572, -17.814951066622449 ] ] ] } },
{ "type": "Feature", "properties": { "OBJECTID_1": 7, "fid_1": 71, "OBJECTID": 72.0, "Codigo": "CTA-LUC115", "SHAPE_Leng": 0.04440100996, "AREA": "CENTRAL", "PROPIETARI": "ENDE", "STI": "SI", "TRAMO": "LT1 Cataricagua - Lucianita en 115 kV", "TIPO": "Conductor Ibis (397)  H1", "N_CIRCU": 1.0, "Un": 115.0, "Long": 4.85, "Pn": 74.0, "NODO_1": "CTA11501", "INTERR_1": "A271", "NODO_2": "LUC11501", "INTERR_2": null, "In_": 392.0, "Sbase": 100.0, "R1": 0.68804525, "X1": 2.02402625, "C1": 4.236e-08, "R0": 2.28445185, "X0": 5.6946178, "C0": 2.6e-08, "Zc": 389.9785462, "Sn": 78.0, "SOBCAR15": 94.0, "SOBCAR30": 0.0, "R11": 0.520261059, "X11": 1.530454631, "Qvacio": 0.176007182, "Shape_Le_1": 4838.7177097599997 }, "geometry": { "type": "MultiLineString", "coordinates": [ [ [ -66.80678609021254, -18.240846720272991 ], [ -66.809918649732268, -18.245037379645709 ], [ -66.811220880042256, -18.246825899790494 ], [ -66.815758609555559, -18.254486719566646 ], [ -66.81857022023128, -18.259233480229671 ], [ -66.821201590375424, -18.263675809785415 ], [ -66.823411930401406, -18.267405870277937 ], [ -66.824423429564632, -18.268399130341024 ], [ -66.82567641960496, -18.26962953992776 ], [ -66.828277739789442, -18.272183920330964 ], [ -66.830859950117912, -18.274516779960813 ], [ -66.832932950065356, -18.276304360398186 ] ] ] } },
{ "type": "Feature", "properties": { "OBJECTID_1": 8, "fid_1": 72, "OBJECTID": 73.0, "Codigo": "VIN-CTA115", "SHAPE_Leng": 0.39980858168, "AREA": "CENTRAL", "PROPIETARI": "ENDE TRANSMISI N", "STI": "SI", "TRAMO": "LT1 Vinto - Cataricagua en 115 kV", "TIPO": "Conductor Ibis (397)  H1", "N_CIRCU": 1.0, "Un": 115.0, "Long": 43.27, "Pn": 74.0, "NODO_1": "VIN11501", "INTERR_1": "A233, A234", "NODO_2": "CTA11501", "INTERR_2": "A272", "In_": 392.0, "Sbase": 100.0, "R1": 6.22023558, "X1": 18.2659978, "C1": 3.7034e-07, "R0": 19.3931813, "X0": 60.6178084, "C0": 2.4537e-07, "Zc": 396.2292938, "Sn": 78.0, "SOBCAR15": 78.0, "SOBCAR30": 0.0, "R11": 4.703391743, "X11": 13.81171856, "Qvacio": 1.53867154, "Shape_Le_1": 43402.4068568 }, "geometry": { "type": "MultiLineString", "coordinates": [ [ [ -67.045380000379069, -17.969270000428015 ], [ -67.044400119946545, -17.969956799596829 ], [ -67.045066699621273, -17.973316700435817 ], [ -67.045566700201945, -17.976433299584738 ], [ -67.046400000280926, -17.979199999846152 ], [ -67.046149999729082, -17.982666699867057 ], [ -67.045716699706631, -17.986366699744892 ], [ -67.04491669961476, -17.989233299761221 ], [ -67.043700000440836, -17.99188330010632 ], [ -67.042716699539668, -17.994033300144292 ], [ -67.040683299691878, -17.998400000137448 ], [ -67.039166700411172, -18.001566699599525 ], [ -67.037199999924042, -18.005883299915176 ], [ -67.035149999913841, -18.00976670003816 ], [ -67.033216700158505, -18.013500000241297 ], [ -67.031316699576251, -18.017116699799445 ], [ -67.029266699664547, -18.02093330031294 ], [ -67.027299999872099, -18.024683299548325 ], [ -67.025300000414973, -18.028433299815564 ], [ -67.023283299618143, -18.032300000297376 ], [ -67.021299999903377, -18.036016700247668 ], [ -67.01928330019112, -18.039849999551897 ], [ -67.017350000193446, -18.04353330022413 ], [ -67.015233300322777, -18.047583299928974 ], [ -67.013400000325987, -18.051050000028781 ], [ -67.012033300251346, -18.05638330009381 ], [ -67.010833300464313, -18.06065000010808 ], [ -67.009700000021496, -18.064950000278458 ], [ -67.008566699990482, -18.069300000283885 ], [ -67.007399999647561, -18.073633300395439 ], [ -67.00621669988233, -18.078083299576917 ], [ -67.005049999627133, -18.082483299656012 ], [ -67.003899999545808, -18.086816700258449 ], [ -67.002749999745873, -18.091099999640853 ], [ -67.001616700001478, -18.095283299614373 ], [ -67.0005332998782, -18.099383299592507 ], [ -66.999366699682668, -18.103800000319389 ], [ -66.998200000133806, -18.108183299797009 ], [ -66.996950000261123, -18.112733300027852 ], [ -66.996116699701759, -18.115899999556035 ], [ -66.99504999991504, -18.120116700325983 ], [ -66.994416700113206, -18.122650000412179 ], [ -66.993066699927923, -18.127516699834668 ], [ -66.988750000351089, -18.132716700106442 ], [ -66.985683299578213, -18.136516700439074 ], [ -66.983549999883778, -18.139016699973926 ], [ -66.981100000367874, -18.142083299839115 ], [ -66.978583299815398, -18.14520000036163 ], [ -66.975983300072073, -18.148150000085241 ], [ -66.973300000250617, -18.151616699642283 ], [ -66.970483299936518, -18.155066700265916 ], [ -66.967883300255025, -18.158283299875436 ], [ -66.964883300052691, -18.161083299975353 ], [ -66.961583299806946, -18.164049999747409 ], [ -66.958166700465881, -18.167083300430161 ], [ -66.954783299645229, -18.170216699657374 ], [ -66.951200000217412, -18.173500000335927 ], [ -66.947966699536892, -18.176483299591872 ], [ -66.944816699539729, -18.179249999823256 ], [ -66.941716700248776, -18.182216700269766 ], [ -66.938683299541367, -18.185016700304949 ], [ -66.935400000199579, -18.1880333001655 ], [ -66.932100000315145, -18.19103330011832 ], [ -66.928783299647748, -18.194083300044689 ], [ -66.9255833001246, -18.197050000378603 ], [ -66.922583299986371, -18.199716700423526 ], [ -66.918116699617116, -18.203933299664506 ], [ -66.915833300385145, -18.205966700242062 ], [ -66.9124667001239, -18.210150000276087 ], [ -66.910883299611029, -18.211933299773282 ], [ -66.907400000140939, -18.216233300443257 ], [ -66.904983300433997, -18.219233299707998 ], [ -66.901400000321843, -18.2198832998569 ], [ -66.896933299766502, -18.220666700296174 ], [ -66.89520000019337, -18.22103329962599 ], [ -66.890299999963844, -18.220649999584072 ], [ -66.885166699532917, -18.220416699639102 ], [ -66.881366700153919, -18.220149999568445 ], [ -66.877716700413657, -18.220516700049405 ], [ -66.874600000225058, -18.220766699903127 ], [ -66.870250000386562, -18.22120000045064 ], [ -66.866666700226332, -18.221466700240981 ], [ -66.861083300217089, -18.221949999563911 ], [ -66.856400000097921, -18.222316699759251 ], [ -66.85265000010709, -18.222616700337223 ], [ -66.850266699891762, -18.222849999744678 ], [ -66.848583299798875, -18.223466700325655 ], [ -66.843233300017516, -18.22551670023411 ], [ -66.840450000333902, -18.22659999985504 ], [ -66.837199999737066, -18.227833300403422 ], [ -66.83188329961007, -18.229800000036779 ], [ -66.827083299825617, -18.2306666999017 ], [ -66.822866699783376, -18.231366700245509 ], [ -66.818466699996563, -18.232149999773334 ], [ -66.816866700353387, -18.23319999959838 ], [ -66.814433300061779, -18.234866699989624 ], [ -66.810849999861048, -18.23729999971685 ], [ -66.808316699662612, -18.239083299609359 ], [ -66.80678609021254, -18.240846720272991 ] ] ] } },
{ "type": "Feature", "properties": { "OBJECTID_1": 9, "fid_1": 83, "OBJECTID": 84.0, "Codigo": "INT-VIN115", "SHAPE_Leng": 0.56147552384, "AREA": "CENTRAL", "PROPIETARI": "ENDE DEORURO", "STI": "NO", "TRAMO": "LT1 Inti Raymi - Vinto en 115 kV", "TIPO": "Conductor Ibis (397) H1", "N_CIRCU": 1.0, "Un": 115.0, "Long": 61.3, "Pn": 114.0, "NODO_1": "INT11501", "INTERR_1": "52-1", "NODO_2": "VIN11501", "INTERR_2": "A240, A241", "In_": 602.0, "Sbase": 100.0, "R1": 8.8122275, "X1": 25.8773046, "C1": 5.2466e-07, "R0": 27.4743688, "X0": 85.8766565, "C0": 3.48e-07, "Zc": 396.228404, "Sn": 120.0, "SOBCAR15": 0.0, "SOBCAR30": 0.0, "R11": 6.66331, "X11": 19.56696, "Qvacio": 2.17982, "Shape_Le_1": 60481.477992599997 }, "geometry": { "type": "MultiLineString", "coordinates": [ [ [ -67.045380000379069, -17.969270000428015 ], [ -67.045031379611331, -17.968553380197932 ], [ -67.046970869959083, -17.965723259760097 ], [ -67.046098059950168, -17.964137530180967 ], [ -67.046814569828726, -17.961199559921937 ], [ -67.047628210230016, -17.957683169796184 ], [ -67.048470010367069, -17.954119729605011 ], [ -67.050769510407306, -17.951312380067687 ], [ -67.053574819948125, -17.949003389715731 ], [ -67.056420199859787, -17.946670139606667 ], [ -67.059328309564776, -17.944290610407382 ], [ -67.06215808961872, -17.941975560097756 ], [ -67.064937979615635, -17.939618669886698 ], [ -67.067869950111401, -17.937240159626523 ], [ -67.070747300365952, -17.934859130263828 ], [ -67.073665190164135, -17.932460449876842 ], [ -67.076651180014608, -17.929907289874848 ], [ -67.079549509892658, -17.927399319683825 ], [ -67.081892479784955, -17.925430910225458 ], [ -67.084701989653112, -17.924607659718582 ], [ -67.087636769754852, -17.921957079788765 ], [ -67.089771350453077, -17.920117719804459 ], [ -67.094201020467381, -17.914378720025699 ], [ -67.096754130061512, -17.911127769831051 ], [ -67.099058050444299, -17.908068609711695 ], [ -67.101415859972931, -17.904938219663165 ], [ -67.103806030083618, -17.901893229659393 ], [ -67.106070980131904, -17.898848630306951 ], [ -67.108585129841444, -17.895793130256511 ], [ -67.111036090043228, -17.892714020228524 ], [ -67.113540339995183, -17.889435650228819 ], [ -67.116042930235253, -17.88622648998221 ], [ -67.118476539836308, -17.882955020133426 ], [ -67.123268869837077, -17.876772359601155 ], [ -67.12556439033375, -17.873600590348882 ], [ -67.127987449597541, -17.870592850285991 ], [ -67.130632189953062, -17.867582289688972 ], [ -67.133204310282522, -17.864745559984662 ], [ -67.135868969655832, -17.861624750149986 ], [ -67.138785639711045, -17.858579610247908 ], [ -67.141458180262376, -17.855757579826513 ], [ -67.143976429776586, -17.852793200236491 ], [ -67.146547930373572, -17.849963499871755 ], [ -67.149220660138752, -17.847083490203559 ], [ -67.151867060182155, -17.844152110364096 ], [ -67.154523669940744, -17.841147219688089 ], [ -67.1569650197941, -17.83846613023676 ], [ -67.159569339552391, -17.835566640145579 ], [ -67.162180519857969, -17.832668360234859 ], [ -67.164049389915107, -17.829549659684101 ], [ -67.165978699590738, -17.826335910231315 ], [ -67.167898259857353, -17.823065110353095 ], [ -67.169795320286937, -17.819920710070047 ], [ -67.173704099842013, -17.813185059560347 ], [ -67.17567816036383, -17.809886980044499 ], [ -67.177734920221511, -17.80658031026444 ], [ -67.179654040012778, -17.803247559860949 ], [ -67.181615789715394, -17.799944710419595 ], [ -67.185536580151165, -17.793280839756267 ], [ -67.187610959852776, -17.789929430371561 ], [ -67.189465430377211, -17.786709080328507 ], [ -67.191423089800068, -17.783405569597065 ], [ -67.193348019839718, -17.780141459817127 ], [ -67.19538171999919, -17.776866700448554 ], [ -67.19890113982467, -17.776502220072061 ], [ -67.202521740436254, -17.776766020288409 ], [ -67.206111379704993, -17.776982679980879 ], [ -67.210675329831417, -17.777293679812882 ], [ -67.214667150382482, -17.777537820378601 ], [ -67.218410610059863, -17.777760930311373 ], [ -67.222326560137375, -17.777992939829762 ], [ -67.226317680259143, -17.778261049648933 ], [ -67.230377229799245, -17.77851705972364 ], [ -67.234337159574764, -17.778790429804449 ], [ -67.238109130247608, -17.779008390094045 ], [ -67.242101120344145, -17.779281010449306 ], [ -67.246020560199909, -17.779505819682516 ], [ -67.249932749876038, -17.779796690419175 ], [ -67.252968369937861, -17.7799508895984 ], [ -67.257049959893592, -17.780200849853188 ], [ -67.264389809815953, -17.780697320449317 ], [ -67.268192169565239, -17.780900229843212 ], [ -67.271905550337507, -17.781278080198348 ], [ -67.297399620459615, -17.788957579738607 ], [ -67.304988309932781, -17.79129904966549 ], [ -67.308692110138225, -17.792607419602284 ], [ -67.312406259556795, -17.793755120337345 ], [ -67.316166829681265, -17.794985369607382 ], [ -67.319814350044552, -17.796175760416851 ], [ -67.323698180016962, -17.797437869731308 ], [ -67.327479739765835, -17.798678489682505 ], [ -67.33105315958754, -17.799833199962521 ], [ -67.334707579940059, -17.800290200261109 ], [ -67.338590329869831, -17.800517159829901 ], [ -67.342623019698962, -17.800772409882576 ], [ -67.346551409549164, -17.800995490002741 ], [ -67.350479029926063, -17.801289269673362 ], [ -67.35431311015779, -17.80143110978582 ], [ -67.358345849955171, -17.801621919982566 ], [ -67.362189759621401, -17.801927849601242 ], [ -67.366105480256991, -17.802106819953295 ], [ -67.370476540164915, -17.801725679846072 ], [ -67.373660669985057, -17.802525469959686 ], [ -67.377043160030567, -17.802760989614207 ], [ -67.380347799587355, -17.802921139653122 ], [ -67.384487920247437, -17.803103389954614 ], [ -67.390093429624315, -17.803360609736195 ], [ -67.392636639718319, -17.8036048500581 ], [ -67.395774279820174, -17.803787209879729 ], [ -67.39965694957246, -17.803900800302319 ], [ -67.402395689570454, -17.80406650983608 ], [ -67.406160449703719, -17.804207560278996 ], [ -67.40996280045367, -17.804296830451296 ], [ -67.413998189558015, -17.804364490239646 ], [ -67.416578229785131, -17.801016410385603 ], [ -67.419057289905041, -17.797868919559253 ], [ -67.421436259909783, -17.794829060124485 ], [ -67.423685890158993, -17.791900519814195 ], [ -67.426121430454216, -17.788752919944308 ], [ -67.427626059898529, -17.786641649924423 ], [ -67.428586580293796, -17.785546560225093 ], [ -67.431107170427609, -17.782339309876665 ], [ -67.433628789823004, -17.779161890404499 ], [ -67.438658369940654, -17.772877099887335 ], [ -67.446053250277927, -17.771852189620549 ], [ -67.457520849882329, -17.774372480328179 ], [ -67.461300870329396, -17.775284919726879 ], [ -67.464409679839861, -17.785083579813815 ], [ -67.463990790038324, -17.788917000118989 ], [ -67.463785990152388, -17.791892060208429 ], [ -67.460037999873151, -17.794040130011648 ], [ -67.456867440405773, -17.795896669687931 ], [ -67.455442240409454, -17.797745719706533 ], [ -67.455164919832058, -17.797566840040897 ] ] ] } },
{ "type": "Feature", "properties": { "OBJECTID_1": 10, "fid_1": 85, "OBJECTID": 86.0, "Codigo": "CTA-CAT115", "SHAPE_Leng": 0.3115388754, "AREA": "CENTRAL", "PROPIETARI": "ENDE TRANSMISI N", "STI": "SI", "TRAMO": "LT1 Cataricagua - Catavi en 115 kV", "TIPO": "Conductor Ibis (397)  H1", "N_CIRCU": 1.0, "Un": 115.0, "Long": 33.5, "Pn": 74.0, "NODO_1": "CTA11501", "INTERR_1": "A273", "NODO_2": "CAT11501", "INTERR_2": "A411, A412", "In_": 392.0, "Sbase": 100.0, "R1": 4.815759, "X1": 14.14169, "C1": 2.8672e-07, "R0": 15.014365, "X0": 46.93082, "C0": 1.9e-07, "Zc": 396.2292938, "Sn": 78.0, "SOBCAR15": 78.0, "SOBCAR30": 0.0, "R11": 3.641405671, "X11": 10.69314934, "Qvacio": 1.191252521, "Shape_Le_1": 17022.068575500001 }, "geometry": { "type": "MultiLineString", "coordinates": [ [ [ -66.80678609021254, -18.240846720272991 ], [ -66.802283300231252, -18.24143330005116 ], [ -66.799733299996518, -18.241949999659198 ], [ -66.793816700358178, -18.242716700430744 ], [ -66.790249999752788, -18.245016699909236 ], [ -66.785400000186158, -18.248083299616724 ], [ -66.779400000216995, -18.251899999640493 ], [ -66.777433300398201, -18.25730000000765 ], [ -66.776350000418233, -18.260400000010993 ], [ -66.77514999982624, -18.26365000037061 ], [ -66.774283299858098, -18.266233300299763 ], [ -66.772583300276821, -18.270816700273805 ], [ -66.770616699542529, -18.276349999776876 ], [ -66.769399999990682, -18.279783300179005 ], [ -66.767183299745781, -18.286233300227178 ], [ -66.765966700165535, -18.289549999836343 ], [ -66.764083300067441, -18.294799999967587 ], [ -66.762283299741028, -18.299983299950846 ], [ -66.761149999546731, -18.303066700302058 ], [ -66.75981670029195, -18.306866700047006 ], [ -66.757866699558946, -18.312399999794781 ], [ -66.756516699893766, -18.316199999938547 ], [ -66.754616700068439, -18.321433299953576 ], [ -66.754133299681357, -18.322866699700196 ], [ -66.751149999869185, -18.325033299592764 ], [ -66.747883300459563, -18.32744999997719 ], [ -66.74485000026192, -18.329683299993345 ], [ -66.742116700252893, -18.331750000112979 ], [ -66.740583299828401, -18.334116699827479 ], [ -66.737166699884781, -18.339550000130362 ], [ -66.735683300119703, -18.341616699572199 ], [ -66.731183299703133, -18.346783299581517 ], [ -66.729033300397916, -18.349216700195825 ], [ -66.726949999806749, -18.351566699717882 ], [ -66.724716700285242, -18.354066700402001 ], [ -66.721666700416279, -18.355866699635836 ], [ -66.71796371713765, -18.35740956840792 ] ] ] } },
{ "type": "Feature", "properties": { "OBJECTID_1": 11, "fid_1": 89, "OBJECTID": 90.0, "Codigo": "MAZ-VIC230", "SHAPE_Leng": 1.77988189595, "AREA": "CENTRAL", "PROPIETARI": "ENDE TRANSMISI N", "STI": "SI", "TRAMO": "LT1 Mazocruz - Vinto Capacitor   en 230 kV", "TIPO": "Conductor Rail (954) H9", "N_CIRCU": 1.0, "Un": 230.0, "Long": 193.57, "Pn": 130.0, "NODO_1": "MAZ23001", "INTERR_1": "Z314, Z315", "NODO_2": "VIC23001", "INTERR_2": "Z223, Z221", "In_": 344.0, "Sbase": 100.0, "R1": 11.77461331, "X1": 79.96498254, "C1": 1.61651e-06, "R0": 67.88320541, "X0": 259.0414927, "C0": 1.089e-06, "Zc": 396.8135138, "Sn": 137.0, "SOBCAR15": 184.0, "SOBCAR30": 0.0, "R11": 2.225824822, "X11": 15.11625379, "Qvacio": 26.86473809, "Shape_Le_1": 60390.378380599999 }, "geometry": { "type": "MultiLineString", "coordinates": [ [ [ -67.389331254691143, -17.547523799116966 ], [ -67.361713380255225, -17.570247259916179 ], [ -67.268121499773287, -17.64601387954918 ], [ -67.231341379890623, -17.686911169736621 ], [ -67.224479420043991, -17.725887119862225 ], [ -67.212402360088419, -17.750315700030434 ], [ -67.197031569546013, -17.771176070017745 ], [ -67.176171200263781, -17.801917660435414 ], [ -67.170407160323194, -17.806034830019616 ], [ -67.162447279775378, -17.813171279643015 ], [ -67.144331699846887, -17.849402429909713 ], [ -67.110021889820004, -17.891946600313144 ], [ -67.074888649775076, -17.934765240001802 ], [ -67.057840498845252, -17.955613045734395 ], [ -67.052957845286116, -17.961361823003241 ], [ -67.051283500360739, -17.963310999714384 ], [ -67.050659286375137, -17.964083926820209 ], [ -67.047732669917878, -17.966600290295755 ], [ -67.046124070246989, -17.967615549825172 ], [ -67.045380000379069, -17.969270000428015 ] ] ] } },
{ "type": "Feature", "properties": { "OBJECTID_1": 12, "fid_1": 98, "OBJECTID": 99.0, "Codigo": "MCH-PAI069", "SHAPE_Leng": 0.0762869106, "AREA": "ORURO", "PROPIETARI": "ENDE DEORURO", "STI": "NO", "TRAMO": "LT1 Machacamarca - Pairumani  en 69 kV", "TIPO": "Conductor Penguin (4/0) H1", "N_CIRCU": 1.0, "Un": 69.0, "Long": 8.69, "Pn": 31.0, "NODO_1": "MCH06901", "INTERR_1": null, "NODO_2": "PAI06901", "INTERR_2": null, "In_": 276.0, "Sbase": 100.0, "R1": 2.4017079, "X1": 4.1083478, "C1": 7.599e-08, "R0": 4.9465666, "X0": 11.909244, "C0": 5.4e-08, "Zc": 414.8289074, "Sn": 33.0, "SOBCAR15": 42.0, "SOBCAR30": 0.0, "R11": 5.04455, "X11": 8.62917, "Qvacio": 0.11366, "Shape_Le_1": 8291.4999513799994 }, "geometry": { "type": "MultiLineString", "coordinates": [ [ [ -66.981019099699878, -18.144365670310851 ], [ -66.979187010270991, -18.146301270133847 ], [ -66.97570800998389, -18.150207520338981 ], [ -66.96771240029355, -18.158874509593598 ], [ -66.964599609590252, -18.162475589713807 ], [ -66.953613279976494, -18.174499510389737 ], [ -66.944702149685497, -18.182678219999783 ], [ -66.940185549614782, -18.189697270148908 ], [ -66.935607909770354, -18.196777339832845 ], [ -66.932004480099181, -18.202400580095649 ] ] ] } },
{ "type": "Feature", "properties": { "OBJECTID_1": 13, "fid_1": 116, "OBJECTID": 117.0, "Codigo": "TET-TES069", "SHAPE_Leng": 0.02403531708, "AREA": "ORURO", "PROPIETARI": "ENDE DEORURO", "STI": "NO", "TRAMO": "LT1 Tap Este - Tesa en 69 kV", "TIPO": "Conductor Ibis (397) T1", "N_CIRCU": 1.0, "Un": 69.0, "Long": 2.64, "Pn": 51.3, "NODO_1": "TET06901", "INTERR_1": null, "NODO_2": "TES06901", "INTERR_2": null, "In_": 452.0, "Sbase": 100.0, "R1": 0.3832105, "X1": 1.0755023, "C1": 2.431e-08, "R0": 0.9274951, "X0": 3.5242803, "C0": 1.4e-08, "Zc": 375.2651687, "Sn": 54.0, "SOBCAR15": 68.0, "SOBCAR30": 0.0, "R11": 0.8049, "X11": 2.25898, "Qvacio": 0.03636, "Shape_Le_1": 2615.4785381900001 }, "geometry": { "type": "MultiLineString", "coordinates": [ [ [ -67.058527589707481, -17.993366280034628 ], [ -67.051868989659994, -17.994487299822453 ], [ -67.048023099627784, -17.985943799793816 ], [ -67.047021300212492, -17.983911469972078 ], [ -67.045851069855914, -17.981526059559343 ], [ -67.044749730032819, -17.978745239639753 ] ] ] } },
{ "type": "Feature", "properties": { "OBJECTID_1": 14, "fid_1": 119, "OBJECTID": 120.0, "Codigo": "VIN-CMV069", "SHAPE_Leng": 0.0156308926, "AREA": "ORURO", "PROPIETARI": "EMVINTO", "STI": "NO", "TRAMO": "LT1 Vinto - CMVinto en 69 kV", "TIPO": "Conductor Ibis (397) H1", "N_CIRCU": 1.0, "Un": 69.0, "Long": 1.9, "Pn": 65.5, "NODO_1": "VIN06901", "INTERR_1": "B252, B254", "NODO_2": "CMV06901", "INTERR_2": null, "In_": 577.0, "Sbase": 100.0, "R1": 0.2777091, "X1": 0.7598556, "C1": 1.702e-08, "R0": 0.7055802, "X0": 2.6594946, "C0": 1.077e-08, "Zc": 376.9513516, "Sn": 69.0, "SOBCAR15": 0.0, "SOBCAR30": 0.0, "R11": 0.5833, "X11": 1.596, "Qvacio": 0.02546, "Shape_Le_1": 1703.5344888100001 }, "geometry": { "type": "MultiLineString", "coordinates": [ [ [ -67.045380000379069, -17.969270000428015 ], [ -67.043328690099912, -17.969922320318656 ], [ -67.043101449938618, -17.971260500003055 ], [ -67.042754170101162, -17.973649339877795 ], [ -67.042359910151021, -17.975710019969853 ], [ -67.041975159779398, -17.977972720178546 ], [ -67.041709600311108, -17.979630140444112 ], [ -67.040934389737004, -17.979655070392766 ], [ -67.039795229564575, -17.980034330247758 ], [ -67.038192969701896, -17.979604039822636 ] ] ] } },
{ "type": "Feature", "properties": { "OBJECTID_1": 15, "fid_1": 129, "OBJECTID": 130.0, "Codigo": "HUY-VIN069", "SHAPE_Leng": 1.01331451999, "AREA": "ORURO", "PROPIETARI": "COBEE", "STI": "NO", "TRAMO": "LT1 Huay6acota - Vinto en 69 kV", "TIPO": "Conductor ibis (397) T1", "N_CIRCU": 1.0, "Un": 69.0, "Long": 106.19, "Pn": 63.0, "NODO_1": "HUY06901", "INTERR_1": "B222", "NODO_2": "VIN06901", "INTERR_2": "B251, B256", "In_": 552.0, "Sbase": 100.0, "R1": 15.51497283, "X1": 43.20437409, "C1": 9.4748e-07, "R0": 37.1666494, "X0": 141.779302, "C0": 5.35e-07, "Zc": 380.9818501, "Sn": 66.0, "SOBCAR15": 72.0, "SOBCAR30": 0.0, "R11": 32.5876, "X11": 90.7464, "Qvacio": 1.41715, "Shape_Le_1": 71965.380382599993 }, "geometry": { "type": "MultiLineString", "coordinates": [ [ [ -67.286239824395182, -17.368655222603046 ], [ -67.286037120193669, -17.369298290182776 ], [ -67.285042709722077, -17.372465059979579 ], [ -67.284225429687041, -17.37506435011942 ], [ -67.283258220143807, -17.378140870201282 ], [ -67.282486980062032, -17.380590390428708 ], [ -67.281788130326035, -17.382824260011645 ], [ -67.280861029798174, -17.385771139813311 ], [ -67.279945560056831, -17.388694359874819 ], [ -67.279239330128533, -17.390939640321893 ], [ -67.277858029607117, -17.395327289754334 ], [ -67.277266070443801, -17.397221370441514 ], [ -67.276872409880809, -17.398458610036379 ], [ -67.276550209787445, -17.399482090117775 ], [ -67.275797570417382, -17.401604339929772 ], [ -67.274726170314452, -17.404940970291189 ], [ -67.273635060297792, -17.408217149600933 ], [ -67.272757139997907, -17.411063350087371 ], [ -67.27157430996715, -17.414746250287141 ], [ -67.270651889653749, -17.417612670310763 ], [ -67.269539990381759, -17.421091210329738 ], [ -67.2686657600145, -17.423812030383953 ], [ -67.268101240293049, -17.425563950434228 ], [ -67.267006230084434, -17.428971860263552 ], [ -67.266772510327002, -17.430088769630878 ], [ -67.266117010287857, -17.432161230092344 ], [ -67.265074620287294, -17.435468839858288 ], [ -67.264389929674607, -17.437638279651555 ], [ -67.263569320271984, -17.4402432799825 ], [ -67.262677260217174, -17.443075269727608 ], [ -67.261225710182458, -17.445657809687646 ], [ -67.259655940019442, -17.448464089838406 ], [ -67.257850499738439, -17.451678879930736 ], [ -67.25631795991616, -17.454409919687947 ], [ -67.25448283012237, -17.457679399808445 ], [ -67.253166660290788, -17.460019589885984 ], [ -67.251905690382699, -17.462267909682026 ], [ -67.250515109704054, -17.464744069768617 ], [ -67.2491400297247, -17.46687053976472 ], [ -67.247771109815275, -17.468993899912281 ], [ -67.246417579630403, -17.471079059674192 ], [ -67.244493740210785, -17.474054129824612 ], [ -67.243639650143464, -17.475370139938871 ], [ -67.242632460160678, -17.477375049924088 ], [ -67.240963000329501, -17.480689440044287 ], [ -67.240168069803772, -17.482277589927875 ], [ -67.238283819546936, -17.486020459677615 ], [ -67.237127189553306, -17.488320300429464 ], [ -67.235707489742737, -17.491146410100093 ], [ -67.234397469857242, -17.493751309603255 ], [ -67.233102670031016, -17.496329070169374 ], [ -67.231832890413926, -17.498854450140279 ], [ -67.230613159601788, -17.501280140025614 ], [ -67.229502829873752, -17.50349490010581 ], [ -67.228089399644958, -17.506306639697911 ], [ -67.226481279858746, -17.50951458983047 ], [ -67.224864690217913, -17.512740419931269 ], [ -67.223210680345773, -17.516029349657607 ], [ -67.221842009567908, -17.518761289991815 ], [ -67.220419050151122, -17.521598649937776 ], [ -67.21929190018075, -17.523830439878221 ], [ -67.218024160319359, -17.52632875038206 ], [ -67.216747260040748, -17.528876109950744 ], [ -67.21533146035253, -17.531679450181031 ], [ -67.213732640106656, -17.534852570012621 ], [ -67.212465660227565, -17.537368289637076 ], [ -67.211022929548605, -17.540228879834888 ], [ -67.209019280392383, -17.544204940058123 ], [ -67.207601130116331, -17.547014530428228 ], [ -67.206296590155972, -17.549605950102375 ], [ -67.205254530078889, -17.551670510161706 ], [ -67.203651429880537, -17.554843639639806 ], [ -67.202154549830539, -17.557805420110665 ], [ -67.200485119942272, -17.561112270298377 ], [ -67.198991110465229, -17.56406609977018 ], [ -67.197553250277309, -17.566908409792696 ], [ -67.19594737983401, -17.570088710274451 ], [ -67.194544639904706, -17.572831439936738 ], [ -67.193630819768259, -17.57490962962239 ], [ -67.192624069899239, -17.577195450193546 ], [ -67.190842459612384, -17.581243139822377 ], [ -67.189737589530509, -17.583732880093496 ], [ -67.188413040303729, -17.586736209999888 ], [ -67.186932119670701, -17.590172489976442 ], [ -67.185632669952952, -17.593089389940676 ], [ -67.184387089674416, -17.595897090248815 ], [ -67.183544080073233, -17.597794340082107 ], [ -67.182108180116131, -17.601026029746013 ], [ -67.181067150032789, -17.603361640026208 ], [ -67.179436950062794, -17.607033929558373 ], [ -67.178191279663622, -17.609839659547813 ], [ -67.176849940243457, -17.61285834009346 ], [ -67.175533259626718, -17.615816829932417 ], [ -67.174147169633841, -17.618939719772673 ], [ -67.172958139703226, -17.621615869600273 ], [ -67.171705989676369, -17.624436070108544 ], [ -67.170296299739675, -17.627610950348647 ], [ -67.16891649963145, -17.630710800078713 ], [ -67.167598740272012, -17.633675959774301 ], [ -67.16625103989432, -17.636706119547316 ], [ -67.16493864958295, -17.639659079743133 ], [ -67.163546150196851, -17.64278923956147 ], [ -67.16216894985952, -17.645889040011358 ], [ -67.160797739709778, -17.648974610030177 ], [ -67.159434609651115, -17.652044749586022 ], [ -67.15810042997893, -17.655040640271846 ], [ -67.156737630180487, -17.658112370383712 ], [ -67.155393739735359, -17.661137199597274 ], [ -67.154049380054047, -17.664159959674205 ], [ -67.152976219980488, -17.666826749998645 ], [ -67.151718629958893, -17.669794269687486 ], [ -67.150177000236368, -17.672868430143755 ], [ -67.148793300421559, -17.675976339553749 ], [ -67.147436329823179, -17.679019629688916 ], [ -67.146105820152115, -17.682017040262373 ], [ -67.144748500061397, -17.685067249930462 ], [ -67.143447110420055, -17.687989799854108 ], [ -67.142121919925913, -17.690966119730984 ], [ -67.140689500237258, -17.694176789681173 ], [ -67.139411960179189, -17.697045969985773 ], [ -67.138062749684138, -17.700086750012478 ], [ -67.13662595016811, -17.703316789956745 ], [ -67.135240660361433, -17.706431990389532 ], [ -67.133943459715283, -17.709346510349114 ], [ -67.132574579888612, -17.712423149717754 ], [ -67.131305189723989, -17.715277519958068 ], [ -67.129939419635633, -17.718343659962805 ], [ -67.128567250114074, -17.721428610429449 ], [ -67.127259900338544, -17.72437074970675 ], [ -67.125820010411701, -17.727607280147023 ], [ -67.124487340433618, -17.730610250346828 ], [ -67.123150240078274, -17.733620320185143 ], [ -67.121853990386583, -17.736546509678259 ], [ -67.120478000004709, -17.739637780312282 ], [ -67.11910607026357, -17.74272302017814 ], [ -67.117732680210707, -17.745810790251298 ], [ -67.116377850066442, -17.748859429686743 ], [ -67.115017569611368, -17.751918419804827 ], [ -67.113664070227486, -17.754960270345908 ], [ -67.112301989733155, -17.758033240445894 ], [ -67.110922070190256, -17.761129139914676 ], [ -67.10953639964508, -17.764238550412209 ], [ -67.108171849709123, -17.767303790061668 ], [ -67.106814400319294, -17.770353799829923 ], [ -67.10545405005081, -17.773405559859196 ], [ -67.104005960227283, -17.776647070364991 ], [ -67.102628810287129, -17.779730759564075 ], [ -67.101280770083434, -17.78275262955156 ], [ -67.099970530454044, -17.785688140424458 ], [ -67.098607569867099, -17.78874776036033 ], [ -67.09723331993618, -17.791831360010356 ], [ -67.095859259674995, -17.794906680161873 ], [ -67.094501700359629, -17.797949850053715 ], [ -67.093157890057086, -17.800970069618504 ], [ -67.091795969814413, -17.804027779624388 ], [ -67.090423769597976, -17.80710616016837 ], [ -67.089040799827629, -17.810209540087239 ], [ -67.087655969830948, -17.813320479797621 ], [ -67.086338210418191, -17.816274090008541 ], [ -67.084994069563905, -17.819293270279736 ], [ -67.083691699885634, -17.822211770048057 ], [ -67.08232825980609, -17.825263759570632 ], [ -67.080952480384738, -17.82835081972976 ], [ -67.079623150124078, -17.831330730266355 ], [ -67.07830067016377, -17.834296350270968 ], [ -67.076916410328309, -17.837403099691649 ], [ -67.075569899552022, -17.840417400137618 ], [ -67.074180819878634, -17.843527380319301 ], [ -67.071484480386403, -17.849564509963784 ], [ -67.070125650152619, -17.852601749649661 ], [ -67.068775819598585, -17.855618260236163 ], [ -67.067561609535645, -17.858326700022818 ], [ -67.06659535996144, -17.860486490434575 ], [ -67.065612699710044, -17.86267960011148 ], [ -67.064260340150497, -17.865704490260359 ], [ -67.062964479980351, -17.86860730999717 ], [ -67.061677379701507, -17.871489029595146 ], [ -67.060347390277215, -17.874463530399176 ], [ -67.059057789896457, -17.877356569812477 ], [ -67.057733990157004, -17.880312690260553 ], [ -67.056509859777563, -17.883057039924925 ], [ -67.055220100180975, -17.885941839617381 ], [ -67.054136039543337, -17.888366030376488 ], [ -67.052725839910863, -17.891522219937528 ], [ -67.051432720455566, -17.894421539680661 ], [ -67.050076400083341, -17.897454649732843 ], [ -67.048969729945355, -17.899935169589543 ], [ -67.047624719755063, -17.902953780132982 ], [ -67.046326279807516, -17.905868409709907 ], [ -67.045023389938649, -17.908780710187031 ], [ -67.043732199780607, -17.911676730299426 ], [ -67.04373978044417, -17.914971609934625 ], [ -67.043744929756329, -17.918259850054181 ], [ -67.04374970027645, -17.921575490388609 ], [ -67.04375360966857, -17.924890589852279 ], [ -67.043759969670973, -17.928179540315554 ], [ -67.043762950188963, -17.931501750293631 ], [ -67.04376980010835, -17.934792219724308 ], [ -67.043769939596586, -17.93794159996089 ], [ -67.043776329865011, -17.940187739762688 ], [ -67.043777659674348, -17.942434859882091 ], [ -67.043779460330555, -17.945757999626831 ], [ -67.043783739742523, -17.948971709890579 ], [ -67.043788419789635, -17.952225430249769 ], [ -67.043793100407839, -17.9554835196003 ], [ -67.043801200177924, -17.958705779575624 ], [ -67.04380164001347, -17.961817769975532 ], [ -67.043802620096699, -17.965179710049902 ], [ -67.043795729658385, -17.968698410100945 ], [ -67.045380000379069, -17.969270000428015 ] ] ] } },
{ "type": "Feature", "properties": { "OBJECTID_1": 16, "fid_1": 130, "OBJECTID": 131.0, "Codigo": "CSG-BOM069", "SHAPE_Leng": 0.16393106833000001, "AREA": "ORURO", "PROPIETARI": "ENDE DEORURO", "STI": "NO", "TRAMO": "LT1 Cuadro Siglo - Bombo en 69 kV", "TIPO": "Conductor Penguin (4/0) H1", "N_CIRCU": 1.0, "Un": 69.0, "Long": 18.94, "Pn": 31.0, "NODO_1": "CSG06901", "INTERR_1": "L1B9", "NODO_2": "BOM06901", "INTERR_2": null, "In_": 276.0, "Sbase": 100.0, "R1": 5.234562357, "X1": 8.954212678, "C1": 1.6563e-07, "R0": 10.78112452, "X0": 25.95639591, "C0": 1.19e-07, "Zc": 414.8273371, "Sn": 33.0, "SOBCAR15": 42.0, "SOBCAR30": 0.0, "R11": 10.99467, "X11": 18.80742, "Qvacio": 0.247740994, "Shape_Le_1": 2885.64031815 }, "geometry": { "type": "MultiLineString", "coordinates": [ [ [ -66.740955890445647, -18.370798770068539 ], [ -66.731337559821213, -18.37313588986407 ], [ -66.721253840132903, -18.375594950319567 ], [ -66.71921003989452, -18.375624660041861 ], [ -66.716205670296176, -18.376040239570607 ], [ -66.714331872521896, -18.37584516449229 ] ] ] } },
{ "type": "Feature", "properties": { "OBJECTID_1": 17, "fid_1": 131, "OBJECTID": 132.0, "Codigo": "CSG-BLV069", "SHAPE_Leng": 0.25877992417000001, "AREA": "ORURO", "PROPIETARI": "ENDE DEORURO", "STI": "NO", "TRAMO": "LT1 Cuadro Siglo - Bolivar en 69 kV", "TIPO": "Conductor Partridge (266) H1", "N_CIRCU": 1.0, "Un": 69.0, "Long": 27.9, "Pn": 19.0, "NODO_1": "CSG06901", "INTERR_1": "L2B9", "NODO_2": "BLV06901", "INTERR_2": null, "In_": 167.0, "Sbase": 100.0, "R1": 13.45587, "X1": 13.321711, "C1": 2.1675e-07, "R0": 19.936739, "X0": 35.956267, "C0": 1.83e-07, "Zc": 442.3071008, "Sn": 20.0, "SOBCAR15": 27.0, "SOBCAR30": 0.0, "R11": 28.2627, "X11": 27.98091, "Qvacio": 0.324198, "Shape_Le_1": 16163.8762073 }, "geometry": { "type": "MultiLineString", "coordinates": [ [ [ -66.698132424735306, -18.429769491647882 ], [ -66.738016169666182, -18.432925069896246 ], [ -66.747527730126791, -18.43432080045207 ], [ -66.758742719536471, -18.435736199551688 ], [ -66.76222168027337, -18.436752770132276 ], [ -66.766654549892095, -18.438656660028727 ], [ -66.779433840124085, -18.443584899595457 ], [ -66.792480470391595, -18.447998049947223 ], [ -66.812683099587971, -18.455505369726154 ], [ -66.842102049931924, -18.46630859016043 ], [ -66.844255570307865, -18.467291559746965 ], [ -66.844415449972757, -18.467365079620262 ], [ -66.844527380396983, -18.467412680007435 ] ] ] } },
{ "type": "Feature", "properties": { "OBJECTID_1": 18, "fid_1": 132, "OBJECTID": 133.0, "Codigo": "AVI-QLC069", "SHAPE_Leng": 0.77676420014000003, "AREA": "ORURO", "PROPIETARI": "ENDE DEORURO", "STI": "NO", "TRAMO": "LT01 Avicaya - Quillacas en 69kV", "TIPO": "Conductor Raven (1/0) H1", "N_CIRCU": 1.0, "Un": 69.0, "Long": 85.0, "Pn": 25.7, "NODO_1": "AVI06901", "INTERR_1": null, "NODO_2": "QLC06901", "INTERR_2": null, "In_": 226.0, "Sbase": 100.0, "R1": 46.869, "X1": 40.2228, "C1": 3.814e-07, "R0": 66.7096, "X0": 130.6166, "C0": 2.13e-07, "Zc": 579.3871733, "Sn": 27.0, "SOBCAR15": 27.0, "SOBCAR30": 0.0, "R11": 98.4436, "X11": 84.484, "Qvacio": 0.57047, "Shape_Le_1": 85374.814338199998 }, "geometry": { "type": "MultiLineString", "coordinates": [ [ [ -66.888252320138861, -18.524359319569868 ], [ -66.888183590430074, -18.524475099787761 ], [ -66.888793940358624, -18.526306149715815 ], [ -66.884216309727989, -18.534179690426235 ], [ -66.884704589850884, -18.546508789978734 ], [ -66.884704590239053, -18.564575190207968 ], [ -66.885498050341695, -18.67700195026768 ], [ -66.886108399780454, -18.678283689591396 ], [ -66.869995119574298, -18.746887210037475 ], [ -66.870178219684888, -18.747497559932295 ], [ -66.853881840291123, -18.792297359919974 ], [ -66.828796390330879, -18.90539551036867 ], [ -66.809875490155946, -18.9434204100248 ], [ -66.825683590252069, -19.106811520015782 ], [ -66.947204590080247, -19.228820800232111 ], [ -66.951904299531634, -19.234497070362892 ], [ -66.952109679560579, -19.23496770028774 ] ] ] } },
{ "type": "Feature", "properties": { "OBJECTID_1": 19, "fid_1": 135, "OBJECTID": 136.0, "Codigo": "HUN-PAI069", "SHAPE_Leng": 0.14453817171, "AREA": "ORURO", "PROPIETARI": "ENDE DEORURO", "STI": "NO", "TRAMO": "LT1 Huanuni - Pairumani en 69 kV", "TIPO": "Conductor Penguin (4/0) H1", "N_CIRCU": 1.0, "Un": 69.0, "Long": 15.29, "Pn": 31.0, "NODO_1": "HUN06901", "INTERR_1": null, "NODO_2": "PAI06901", "INTERR_2": null, "In_": 276.0, "Sbase": 100.0, "R1": 4.2257898, "X1": 7.228612, "C1": 1.3371e-07, "R0": 8.7034527, "X0": 20.9542394, "C0": 9.6e-08, "Zc": 414.8304011, "Sn": 33.0, "SOBCAR15": 42.0, "SOBCAR30": 0.0, "R11": 8.87585, "X11": 15.18297, "Qvacio": 0.2, "Shape_Le_1": 15624.5527017 }, "geometry": { "type": "MultiLineString", "coordinates": [ [ [ -66.932004480099181, -18.202400580095649 ], [ -66.929626459592441, -18.206298829599458 ], [ -66.924987790172366, -18.215087889725947 ], [ -66.921508789669858, -18.221679689945617 ], [ -66.918884279692236, -18.225402830015106 ], [ -66.917480470150565, -18.226928709777603 ], [ -66.906982419944384, -18.234375000434778 ], [ -66.906127929592074, -18.234985349875735 ], [ -66.891479490134202, -18.249023439693577 ], [ -66.88592529015385, -18.25421142990033 ], [ -66.881177800111701, -18.265205370371888 ], [ -66.879642819854311, -18.267031139782734 ], [ -66.874355440112325, -18.271850389609813 ], [ -66.871704099933751, -18.273681640418797 ], [ -66.859190840268923, -18.277101110107029 ], [ -66.85536773039945, -18.281195419892924 ], [ -66.843946119918172, -18.289530899822037 ], [ -66.838451829678419, -18.291076699619175 ], [ -66.837113269739845, -18.290736369774717 ], [ -66.835044520159116, -18.289800600358561 ], [ -66.832833750070336, -18.288881270261388 ], [ -66.831642539769163, -18.287465860323596 ], [ -66.829522390383005, -18.285221460279313 ] ] ] } },
{ "type": "Feature", "properties": { "OBJECTID_1": 20, "fid_1": 136, "OBJECTID": 137.0, "Codigo": "HUN-BOM069", "SHAPE_Leng": 0.12588834407, "AREA": "ORURO", "PROPIETARI": "ENDE DEORURO", "STI": "NO", "TRAMO": "LT1 Huanuni - Bombo en 69 kV", "TIPO": "Conductor Penguin (4/0) H1", "N_CIRCU": 1.0, "Un": 69.0, "Long": 12.44, "Pn": 31.0, "NODO_1": "HUN06901", "INTERR_1": null, "NODO_2": "BOM06901", "INTERR_2": null, "In_": 276.0, "Sbase": 100.0, "R1": 3.438118043, "X1": 5.881225222, "C1": 1.0879e-07, "R0": 7.081160982, "X0": 17.04844589, "C0": 7.8e-08, "Zc": 414.8273371, "Sn": 33.0, "SOBCAR15": 42.0, "SOBCAR30": 0.0, "R11": 7.22142, "X11": 12.35292, "Qvacio": 0.162719006, "Shape_Le_1": 13617.593856900001 }, "geometry": { "type": "MultiLineString", "coordinates": [ [ [ -66.829522390383005, -18.285221460279313 ], [ -66.827997859684572, -18.286551649716465 ], [ -66.82773492026547, -18.286763860050584 ], [ -66.827090550080896, -18.286873959679248 ], [ -66.822826890321991, -18.289541280267127 ], [ -66.813067120151175, -18.295691599550914 ], [ -66.807495119869245, -18.299194339547391 ], [ -66.800163889617949, -18.303809559660493 ], [ -66.788964180374947, -18.310939279989199 ], [ -66.785777779662027, -18.312928940359413 ], [ -66.77434083996215, -18.330921279585315 ], [ -66.770541500320917, -18.336818259948341 ], [ -66.763305660261238, -18.348205570284797 ], [ -66.7573121701448, -18.357642070145392 ], [ -66.756255329987098, -18.358903209905971 ], [ -66.752685550355835, -18.361694340186112 ], [ -66.740955890445647, -18.370798770068539 ] ] ] } },
{ "type": "Feature", "properties": { "OBJECTID_1": 21, "fid_1": 137, "OBJECTID": 138.0, "Codigo": "EST-TET069", "SHAPE_Leng": 0.01637074723, "AREA": "ORURO", "PROPIETARI": "ENDE DEORURO", "STI": "NO", "TRAMO": "LT1 Este - Tap Este en 69 kV", "TIPO": "Conductor Penguin (4/0) H1", "N_CIRCU": 1.0, "Un": 69.0, "Long": 1.8, "Pn": 31.0, "NODO_1": "EST06901", "INTERR_1": null, "NODO_2": "TET06901", "INTERR_2": null, "In_": 276.0, "Sbase": 100.0, "R1": 0.4974769, "X1": 0.8509811, "C1": 1.574e-08, "R0": 1.0246053, "X0": 2.4668169, "C0": 1.1e-08, "Zc": 414.8287631, "Sn": 33.0, "SOBCAR15": 42.0, "SOBCAR30": 0.0, "R11": 1.0449, "X11": 1.7874, "Qvacio": 0.02354, "Shape_Le_1": 1811.7104770399999 }, "geometry": { "type": "MultiLineString", "coordinates": [ [ [ -67.058527589707481, -17.993366280034628 ], [ -67.058522470189573, -17.979467879897051 ], [ -67.058705219585818, -17.978032589986103 ], [ -67.058849890318726, -17.97739299016235 ], [ -67.058966889830501, -17.97704228008347 ] ] ] } },
{ "type": "Feature", "properties": { "OBJECTID_1": 22, "fid_1": 138, "OBJECTID": 139.0, "Codigo": "SUD-TET069", "SHAPE_Leng": 0.05195893953, "AREA": "ORURO", "PROPIETARI": "ENDE DEORURO", "STI": "NO", "TRAMO": "LT1 Sud - Tap Este en 69 kV", "TIPO": "Conductor Ibis (397) H1", "N_CIRCU": 1.0, "Un": 69.0, "Long": 5.33, "Pn": 51.0, "NODO_1": "SUD06901", "INTERR_1": "L2B1", "NODO_2": "TET06901", "INTERR_2": null, "In_": 452.0, "Sbase": 100.0, "R1": 0.7733911, "X1": 2.1705666, "C1": 4.906e-08, "R0": 1.8718601, "X0": 7.1126626, "C0": 2.8e-08, "Zc": 375.2696339, "Sn": 54.0, "SOBCAR15": 68.0, "SOBCAR30": 0.0, "R11": 1.62443, "X11": 4.55906, "Qvacio": 0.07338, "Shape_Le_1": 5512.7891323900003 }, "geometry": { "type": "MultiLineString", "coordinates": [ [ [ -67.058527589707481, -17.993366280034628 ], [ -67.084055319830384, -17.989179779619764 ], [ -67.093236759980527, -17.986993639619588 ], [ -67.109539940224735, -17.983602749856573 ] ] ] } },
{ "type": "Feature", "properties": { "OBJECTID_1": 23, "fid_1": 139, "OBJECTID": 140.0, "Codigo": "SUD-TNO069", "SHAPE_Leng": 0.05377112758, "AREA": "ORURO", "PROPIETARI": "ENDE DEORURO", "STI": "NO", "TRAMO": "LT1 Sud - Tap Norte en 69 kV", "TIPO": "Conductor Penguin (4/0) H1", "N_CIRCU": 1.0, "Un": 69.0, "Long": 4.02, "Pn": 31.0, "NODO_1": "SUD06901", "INTERR_1": "L1B1", "NODO_2": "TNO06901", "INTERR_2": null, "In_": 276.0, "Sbase": 100.0, "R1": 1.1110317, "X1": 1.9005245, "C1": 3.516e-08, "R0": 2.2882851, "X0": 5.5092245, "C0": 2.5e-08, "Zc": 414.8281778, "Sn": 33.0, "SOBCAR15": 42.0, "SOBCAR30": 0.0, "R11": 2.33361, "X11": 3.99186, "Qvacio": 0.05258, "Shape_Le_1": 5851.7650670599996 }, "geometry": { "type": "MultiLineString", "coordinates": [ [ [ -67.109539940224735, -17.983602749856573 ], [ -67.109437420391728, -17.983486649573333 ], [ -67.101477759651033, -17.985159159927253 ], [ -67.095722790151711, -17.986398350451193 ], [ -67.093548509795625, -17.986831679811282 ], [ -67.093366059611128, -17.986177879722145 ], [ -67.092985939535012, -17.982916470268027 ], [ -67.092583020111704, -17.979533430226972 ], [ -67.092415770040816, -17.978317049747162 ], [ -67.091617520071253, -17.972235180233483 ], [ -67.091564300455033, -17.971421719694856 ], [ -67.09172394984401, -17.966297740311074 ], [ -67.091746760164952, -17.965978440300152 ], [ -67.092028050214537, -17.959926979569246 ], [ -67.087527460311094, -17.955510009909112 ], [ -67.08468517032118, -17.952664249892397 ] ] ] } },
{ "type": "Feature", "properties": { "OBJECTID_1": 24, "fid_1": 140, "OBJECTID": 141.0, "Codigo": "MCH-SUD069", "SHAPE_Leng": 0.2131503258, "AREA": "ORURO", "PROPIETARI": "ENDE DEORURO", "STI": "NO", "TRAMO": "LT1 Machacamarca - Sud en 69 kV", "TIPO": "Conductor Penguin (4/0) H1", "N_CIRCU": 1.0, "Un": 69.0, "Long": 23.01, "Pn": 31.0, "NODO_1": "MCH06901", "INTERR_1": null, "NODO_2": "SUD06901", "INTERR_2": "L3B1", "In_": 276.0, "Sbase": 100.0, "R1": 6.3594129, "X1": 10.8783756, "C1": 2.0122e-07, "R0": 13.0978709, "X0": 31.5341431, "C0": 1.44e-07, "Zc": 414.8312987, "Sn": 33.0, "SOBCAR15": 42.0, "SOBCAR30": 0.0, "R11": 13.35731, "X11": 22.84893, "Qvacio": 0.30098, "Shape_Le_1": 23201.915433800001 }, "geometry": { "type": "MultiLineString", "coordinates": [ [ [ -67.109539940224735, -17.983602749856573 ], [ -67.109458830186028, -17.983740270255964 ], [ -67.102320429668723, -17.985239329700271 ], [ -67.095481839902192, -17.986624180399055 ], [ -67.092847769925896, -17.987209529646869 ], [ -67.088443369833143, -17.98831598041571 ], [ -67.084119889730204, -17.989450989580405 ], [ -67.078613280447655, -17.993408200423328 ], [ -67.077880860439393, -17.994079589942899 ], [ -67.071052559971761, -18.005132599998742 ], [ -67.063720699605199, -18.01708984044684 ], [ -67.060153459633753, -18.022727580401853 ], [ -67.051988780059446, -18.03561644961761 ], [ -67.045708370289404, -18.045811310100724 ], [ -67.036424779694514, -18.061451259996829 ], [ -67.027231300330925, -18.077124639874125 ], [ -67.017993289720749, -18.092757239629517 ], [ -67.009176349978873, -18.10772155995852 ], [ -67.000985880317742, -18.121624100176536 ], [ -67.000183100453114, -18.122985840229997 ], [ -66.992947010175754, -18.131017109565601 ], [ -66.985021749688286, -18.139798430368554 ], [ -66.981019099699878, -18.144365670310851 ] ] ] } },
{ "type": "Feature", "properties": { "OBJECTID_1": 25, "fid_1": 142, "OBJECTID": 143.0, "Codigo": "TAB-TCO069", "SHAPE_Leng": 0.2373356048, "AREA": "ORURO", "PROPIETARI": "ENDE DEORURO", "STI": "NO", "TRAMO": "LT1 Tablachaca - Tap Colquiri  en 69 kV", "TIPO": "Conductor Penguin (4/0) H1", "N_CIRCU": 1.0, "Un": 69.0, "Long": 30.8, "Pn": 31.0, "NODO_1": "TAB06901", "INTERR_1": null, "NODO_2": "TCO06901", "INTERR_2": null, "In_": 276.0, "Sbase": 100.0, "R1": 8.5123823, "X1": 14.5612328, "C1": 2.6935e-07, "R0": 17.5321349, "X0": 42.2099786, "C0": 1.93e-07, "Zc": 414.825692, "Sn": 33.0, "SOBCAR15": 42.0, "SOBCAR30": 0.0, "R11": 17.8794, "X11": 30.5844, "Qvacio": 0.40286, "Shape_Le_1": 3510.6702609399999 }, "geometry": { "type": "MultiLineString", "coordinates": [ [ [ -67.286456280792819, -17.369168692901955 ], [ -67.281201860151583, -17.385907159704725 ], [ -67.277127899535088, -17.399224560424742 ], [ -67.276787140388649, -17.399078490217306 ] ] ] } },
{ "type": "Feature", "properties": { "OBJECTID_1": 26, "fid_1": 143, "OBJECTID": 144.0, "Codigo": "CRC-SOC069", "SHAPE_Leng": 0.30699223027, "AREA": "ORURO", "PROPIETARI": "ENDE DEORURO", "STI": "NO", "TRAMO": "LT1 Caracollo - Socomani en 69 kV", "TIPO": "Conductor Penguin (4/0) H1", "N_CIRCU": 1.0, "Un": 69.0, "Long": 28.29, "Pn": 31.0, "NODO_1": "CRC06901", "INTERR_1": null, "NODO_2": "SOC06901", "INTERR_2": "L3B11", "In_": 276.0, "Sbase": 100.0, "R1": 7.8186785, "X1": 13.3745869, "C1": 2.474e-07, "R0": 16.1033798, "X0": 38.7701394, "C0": 1.77e-07, "Zc": 414.8254609, "Sn": 33.0, "SOBCAR15": 42.0, "SOBCAR30": 0.0, "R11": 16.42235, "X11": 28.09197, "Qvacio": 0.37004, "Shape_Le_1": 33797.803644599997 }, "geometry": { "type": "MultiLineString", "coordinates": [ [ [ -67.161270389897581, -17.649211249666482 ], [ -67.151973139734693, -17.669967699814595 ], [ -67.143853229972507, -17.688111089730249 ], [ -67.13617947021315, -17.705391929715628 ], [ -67.134454359908901, -17.709823679602099 ], [ -67.133472830013247, -17.711727249673714 ], [ -67.124787800167141, -17.731000880434372 ], [ -67.12246783001325, -17.736235689921113 ], [ -67.117054550151991, -17.748341200298412 ], [ -67.111789999853983, -17.759970820011674 ], [ -67.101052679883907, -17.784122350333899 ], [ -67.093884549687488, -17.80024318977549 ], [ -67.09034509957408, -17.808184650188913 ], [ -67.08094622979479, -17.829570049596903 ], [ -67.080053930026878, -17.831354649774042 ], [ -67.075889880073049, -17.84069402977908 ], [ -67.069286870335461, -17.855357459840548 ], [ -67.067829449981758, -17.8587481901207 ], [ -67.06690740987662, -17.880103849989545 ], [ -67.066074599868728, -17.904255380334284 ], [ -67.070893010354993, -17.923231589977547 ], [ -67.07288580976406, -17.931262270229954 ], [ -67.074145659857876, -17.935225400128846 ] ] ] } },
{ "type": "Feature", "properties": { "OBJECTID_1": 27, "fid_1": 144, "OBJECTID": 145.0, "Codigo": "CRC-TKA024", "SHAPE_Leng": 0.50328316697999997, "AREA": "ORURO", "PROPIETARI": "ENDE DEORURO", "STI": "NO", "TRAMO": "LT1Caracollo - Tap Kami en 24.9 kV", "TIPO": "Conductor Partridge (266)", "N_CIRCU": 1.0, "Un": 25.0, "Long": 53.51, "Pn": 16.4, "NODO_1": "CRC02501", "INTERR_1": null, "NODO_2": "TKA02401", "INTERR_2": null, "In_": 410.0, "Sbase": 100.0, "R1": 13.82555, "X1": 16.50228, "C1": 9.6107e-07, "R0": 28.47515518, "X0": 47.83667103, "C0": 6.88e-07, "Zc": 233.7868687, "Sn": 17.3, "SOBCAR15": 19.0, "SOBCAR30": 0.0, "R11": 222.9891, "X11": 266.1615, "Qvacio": 0.18719852, "Shape_Le_1": 21984.194946299998 }, "geometry": { "type": "MultiLineString", "coordinates": [ [ [ -67.161270389897581, -17.649211249666482 ], [ -67.103726120314448, -17.654252309811014 ], [ -67.049978679546882, -17.658960760411968 ], [ -67.024256389562666, -17.661946859910888 ], [ -67.001378630277827, -17.647989330323995 ], [ -66.983783550022295, -17.636967210371864 ], [ -66.979998420467581, -17.634583059776446 ], [ -66.97785689968012, -17.627801600078303 ], [ -66.974525659781406, -17.624232409753986 ], [ -66.972515997372213, -17.620434600125705 ] ] ] } },
{ "type": "Feature", "properties": { "OBJECTID_1": 28, "fid_1": 210, "OBJECTID": 211.0, "Codigo": "VIN-SOC069", "SHAPE_Leng": 0.04480946004, "AREA": "ORURO", "PROPIETARI": "ENDE DEORURO", "STI": "NO", "TRAMO": "LT Vinto - Socomani en 69 kV", "TIPO": "Conductor Ibis (397)", "N_CIRCU": 1.0, "Un": 69.0, "Long": 5.9, "Pn": 53.9885, "NODO_1": "VIN06901", "INTERR_1": "B255, B256", "NODO_2": "SOC06901", "INTERR_2": "L2B11", "In_": 475.0, "Sbase": 100.0, "R1": 0.84016, "X1": 2.17002, "C1": 5.848e-08, "R0": 2.05025, "X0": 8.42992, "C0": 3.141e-08, "Zc": 343.6904614, "Sn": 56.83, "SOBCAR15": 0.0, "SOBCAR30": 0.0, "R11": 1.764671288, "X11": 4.557908003, "Qvacio": 0.087463522, "Shape_Le_1": 4872.2343694399997 }, "geometry": { "type": "MultiLineString", "coordinates": [ [ [ -67.074145657980182, -17.935225399206782 ], [ -67.073154428149365, -17.936482476965146 ], [ -67.072125088094765, -17.937818067744772 ], [ -67.062675563921417, -17.949455001361024 ], [ -67.059877317788633, -17.952829076156586 ], [ -67.057673937376336, -17.955684428978508 ], [ -67.056836366262303, -17.956712357297352 ], [ -67.053981013149425, -17.959967458641611 ], [ -67.052986870173044, -17.961251110990794 ], [ -67.051220837836624, -17.963298705158198 ], [ -67.050616455068266, -17.964050613973431 ], [ -67.047818209181713, -17.966453869631017 ], [ -67.047684959418206, -17.966553807054687 ], [ -67.046057408328082, -17.96759601101051 ], [ -67.045380000379069, -17.969270000428015 ] ] ] } },
{ "type": "Feature", "properties": { "OBJECTID_1": 29, "fid_1": 212, "OBJECTID": 213.0, "Codigo": "VHE-CIH115", "SHAPE_Leng": 1.10861261224, "AREA": "CENTRAL", "PROPIETARI": "ENDE TRANSMISI N", "STI": "SI", "TRAMO": "LT1 Valle Hermoso - Caihuasi en 115 kV", "TIPO": "Conductor Ibis (397)  H1", "N_CIRCU": 1.0, "Un": 115.0, "Long": 120.12, "Pn": 74.0, "NODO_1": "VHE11501", "INTERR_1": "A143, A144", "NODO_2": "CIH11501", "INTERR_2": "A263", "In_": 392.0, "Sbase": 100.0, "R1": 17.26793, "X1": 50.7077, "C1": 1.0281e-06, "R0": 53.83721, "X0": 168.279, "C0": 6.8115e-07, "Zc": 396.2264162, "Sn": 78.0, "SOBCAR15": 78.0, "SOBCAR30": 0.0, "R11": 13.05703592, "X11": 38.34230624, "Qvacio": 4.271522913, "Shape_Le_1": 18718.9315962 }, "geometry": { "type": "MultiLineString", "coordinates": [ [ [ -66.889664602429363, -17.652033782015387 ], [ -66.893466671448962, -17.651449997616272 ], [ -66.896050001757104, -17.651416673076056 ], [ -66.902183329234518, -17.651283324704174 ], [ -66.906116665313007, -17.651199998341127 ], [ -66.908150003102293, -17.651166673414835 ], [ -66.913866665840459, -17.650949996632701 ], [ -66.916850002736055, -17.650933329669822 ], [ -66.921316674578264, -17.650749998567299 ], [ -66.92923333001616, -17.650683330335486 ], [ -66.933466668095051, -17.650583326027778 ], [ -66.938816670074701, -17.650466673819093 ], [ -66.94279999782087, -17.650400003771786 ], [ -66.9445666682292, -17.650350002639193 ], [ -66.953149996593595, -17.650166671185755 ], [ -66.961349996195736, -17.649999998265766 ], [ -66.96336666683743, -17.65006666698801 ], [ -66.970266671561845, -17.651850004969756 ], [ -66.972900005117879, -17.652550002620725 ], [ -66.978533330632985, -17.654016670753382 ], [ -66.982666666184414, -17.655133333779919 ], [ -66.985616668278553, -17.655900002186595 ], [ -66.992749997459114, -17.657783333651693 ], [ -66.997366674807992, -17.663266673779649 ], [ -66.999066665321195, -17.665316668697493 ], [ -67.001150004577212, -17.667750002827759 ], [ -67.004799995609005, -17.672199998338527 ], [ -67.00761666870244, -17.675450001646482 ], [ -67.011183333573015, -17.679766667990862 ], [ -67.01410000124109, -17.683200003314685 ], [ -67.016600004572382, -17.68618333018447 ], [ -67.019666668171624, -17.689849998864286 ], [ -67.021666670808315, -17.692183329037857 ], [ -67.024699999860033, -17.695799995030946 ], [ -67.027566666297545, -17.699249998066193 ], [ -67.029866671146891, -17.702000001960162 ], [ -67.03245000095805, -17.705083333203088 ], [ -67.03548333025465, -17.708666673864297 ], [ -67.037994169607472, -17.711659237977706 ] ] ] } },
{ "type": "Feature", "properties": { "OBJECTID_1": 30, "fid_1": 216, "OBJECTID": 217.0, "Codigo": "CIH-VIN115", "SHAPE_Leng": 0.26745319765999997, "AREA": "CENTRAL", "PROPIETARI": "ENDE TRANSMISI N", "STI": "SI", "TRAMO": "LT1 Caihuasi - Vinto en 115 kV", "TIPO": "Conductor Ibis (397)  H1", "N_CIRCU": 1.0, "Un": 115.0, "Long": 29.58, "Pn": 74.0, "NODO_1": "CIH11501", "INTERR_1": "A261", "NODO_2": "VIN11501", "INTERR_2": "A231, A232", "In_": 392.0, "Sbase": 100.0, "R1": 4.26295128, "X1": 12.71265576, "C1": 2.5137e-07, "R0": 13.25761, "X0": 41.43933, "C0": 1.68e-07, "Zc": 401.2229428, "Sn": 78.0, "SOBCAR15": 78.0, "SOBCAR30": 78.0, "R11": 3.223403614, "X11": 9.612594147, "Qvacio": 1.044384577, "Shape_Le_1": 29520.9370758 }, "geometry": { "type": "MultiLineString", "coordinates": [ [ [ -67.037994169607472, -17.711659237977706 ], [ -67.03834999554762, -17.712083332601622 ], [ -67.040533329334593, -17.71464999556947 ], [ -67.043233331024368, -17.717849997640208 ], [ -67.045500001645919, -17.720616669338643 ], [ -67.046633331846422, -17.72186667075329 ], [ -67.046216668086927, -17.72583333170919 ], [ -67.045816671413007, -17.730050004192698 ], [ -67.045399997534318, -17.734216671769637 ], [ -67.044933332361524, -17.738299995411023 ], [ -67.043866670543764, -17.742316667850325 ], [ -67.042600000916735, -17.746583332284818 ], [ -67.041333332362782, -17.750866672026117 ], [ -67.04004999596566, -17.755150003407064 ], [ -67.038816671157051, -17.759533327908997 ], [ -67.037566669866436, -17.76383332593468 ], [ -67.036316668174351, -17.768099999717958 ], [ -67.035033332188519, -17.772449999892345 ], [ -67.033766672126887, -17.776883327034046 ], [ -67.032483326432626, -17.781250004326832 ], [ -67.031199998962094, -17.785649996120632 ], [ -67.029933329788292, -17.789850000427403 ], [ -67.028699995943498, -17.794149999094916 ], [ -67.027516672713233, -17.798216673362148 ], [ -67.026299996648007, -17.802416666579042 ], [ -67.025066671660383, -17.806666672685257 ], [ -67.02383332787899, -17.810900001846786 ], [ -67.022866670804433, -17.814166674091691 ], [ -67.024433332244257, -17.817783331411899 ], [ -67.026416668191942, -17.82234999610699 ], [ -67.027233329222312, -17.824183325663789 ], [ -67.027333332786426, -17.827850004120041 ], [ -67.027549997884776, -17.832600001420161 ], [ -67.027733329391154, -17.837183333569314 ], [ -67.027900003424435, -17.841283334173003 ], [ -67.02810000109703, -17.845833331905631 ], [ -67.028266674371352, -17.849633330408174 ], [ -67.028516675446312, -17.853866667856828 ], [ -67.028666671034699, -17.858200000861075 ], [ -67.02885000160893, -17.862649994765896 ], [ -67.029016665789442, -17.865883333389657 ], [ -67.028733330627205, -17.868833325217707 ], [ -67.028299999439213, -17.874116666711718 ], [ -67.027950005087135, -17.878516668562931 ], [ -67.027583333416814, -17.882883327046791 ], [ -67.027283331182133, -17.886533327961352 ], [ -67.0281500032699, -17.889716672771197 ], [ -67.029066668376387, -17.893366674416672 ], [ -67.030083326725048, -17.89721667324995 ], [ -67.031316671004021, -17.901866667062794 ], [ -67.031899998141043, -17.904016665832078 ], [ -67.033049996366316, -17.908349997945649 ], [ -67.033416668441433, -17.90983333258632 ], [ -67.034366666603617, -17.915599999043128 ], [ -67.035133325726108, -17.919616671292633 ], [ -67.035650003794288, -17.923450003261227 ], [ -67.036350003380107, -17.92766667480511 ], [ -67.037100003919562, -17.932166671280974 ], [ -67.037949998651527, -17.937033329854739 ], [ -67.038699999723747, -17.941483334262383 ], [ -67.039433333700856, -17.945866668738024 ], [ -67.040183334643444, -17.949766670208518 ], [ -67.040983328182904, -17.953866670006249 ], [ -67.041783331241334, -17.9575000039316 ], [ -67.042866669166429, -17.960783332793419 ], [ -67.044033334088482, -17.964033328252683 ], [ -67.044283334906453, -17.966366667746808 ], [ -67.044500000400518, -17.968716664621784 ], [ -67.045380000379069, -17.969270000428015 ] ] ] } },
{ "type": "Feature", "properties": { "OBJECTID_1": 31, "fid_1": 217, "OBJECTID": 218.0, "Codigo": "CIH-JER115", "SHAPE_Leng": 0.41669050061000001, "AREA": "CENTRAL", "PROPIETARI": "ENDE TRANSMISI N", "STI": "SI", "TRAMO": "LT1 Caihuasi - Jeruyo en 115 kV", "TIPO": "Conductor Ibis (397)  H1", "N_CIRCU": 1.0, "Un": 115.0, "Long": 45.59, "Pn": 74.0, "NODO_1": "CIH11501", "INTERR_1": "A262", "NODO_2": "JER11501", "INTERR_2": "A291", "In_": 392.0, "Sbase": 100.0, "R1": 6.570096, "X1": 19.20719, "C1": 3.9495e-07, "R0": 18.92963, "X0": 50.94207, "C0": 2.56e-07, "Zc": 393.4476667, "Sn": 78.0, "SOBCAR15": 78.0, "SOBCAR30": 0.0, "R11": 4.967936484, "X11": 14.52339509, "Qvacio": 1.640913035, "Shape_Le_1": 45366.525239900002 }, "geometry": { "type": "MultiLineString", "coordinates": [ [ [ -67.276870198776948, -17.396558659326292 ], [ -67.277858796411891, -17.397351354041067 ], [ -67.278938752427251, -17.398995147572698 ], [ -67.278264659465947, -17.402639801244149 ], [ -67.277044445790935, -17.405531794018366 ], [ -67.275205954109737, -17.408850753814207 ], [ -67.27414924093226, -17.41237888877928 ], [ -67.272766353563568, -17.416524305421074 ], [ -67.271596343421265, -17.420031401968291 ], [ -67.269300071984233, -17.425288179615066 ], [ -67.268414360064199, -17.42816772459544 ], [ -67.26695764822712, -17.432903406250336 ], [ -67.265695647441731, -17.437005878121642 ], [ -67.264375414389107, -17.441297397867022 ], [ -67.263887161449503, -17.442884413375594 ], [ -67.262651479841523, -17.446900789674981 ], [ -67.261383152411881, -17.450585862134044 ], [ -67.258142850126063, -17.454909703004386 ], [ -67.255246152945602, -17.458774804333835 ], [ -67.252377951545071, -17.462844823668547 ], [ -67.251283340649039, -17.464793426582204 ], [ -67.249138474037906, -17.468611523433442 ], [ -67.2467568724187, -17.471949288887874 ], [ -67.245034719003655, -17.474362750815125 ], [ -67.24341464981454, -17.475130381892473 ], [ -67.241049398580685, -17.479705090067316 ], [ -67.239777214250836, -17.482165538572094 ], [ -67.237397597105897, -17.486767590587117 ], [ -67.23583352245258, -17.489792261332532 ], [ -67.234024109657881, -17.493291213593984 ], [ -67.232151829900459, -17.496911582687357 ], [ -67.229513719559904, -17.501261502275334 ], [ -67.227136135633771, -17.505181624437892 ], [ -67.22481444837689, -17.50900936676295 ], [ -67.222499070668462, -17.512826513347285 ], [ -67.220115770395225, -17.515554689328358 ], [ -67.216663611883604, -17.519506193429812 ], [ -67.214218713536027, -17.5223045936456 ], [ -67.211917042194514, -17.524938927038505 ], [ -67.209505175373664, -17.52714688904809 ], [ -67.205723713900312, -17.530608457231526 ], [ -67.202281885350843, -17.533758932977971 ], [ -67.199359634635925, -17.536433676178685 ], [ -67.196122974250969, -17.539396046557325 ], [ -67.193224029208096, -17.542049193055576 ], [ -67.189487661043572, -17.545468566443201 ], [ -67.186112332938094, -17.548557335953134 ], [ -67.182793420114692, -17.551594322167158 ], [ -67.180489064336399, -17.553702832930924 ], [ -67.17721585999648, -17.556697717045346 ], [ -67.17384474700458, -17.559782003596073 ], [ -67.170163116607014, -17.563150194869579 ], [ -67.168858443073546, -17.564343743207093 ], [ -67.165520835102228, -17.566521326438306 ], [ -67.162305155688642, -17.568619238426578 ], [ -67.160319103379521, -17.569914894612296 ], [ -67.155591384911617, -17.572998974847462 ], [ -67.153612381026392, -17.574289895376666 ], [ -67.14982757229825, -17.576758642966404 ], [ -67.14691302959406, -17.578659630773991 ], [ -67.143605888731045, -17.580816580575512 ], [ -67.139163914384895, -17.583713515116617 ], [ -67.136020191393584, -17.585763636553342 ], [ -67.132729503174986, -17.587909496025272 ], [ -67.128111604087181, -17.590920634433722 ], [ -67.124417323057401, -17.593329362123367 ], [ -67.119002850565252, -17.59685942867296 ], [ -67.11668861200171, -17.598368150977517 ], [ -67.11400045308234, -17.600775415307794 ], [ -67.111017536816703, -17.603446502167525 ], [ -67.107811809069517, -17.606316961305662 ], [ -67.104484562305402, -17.60929607498073 ], [ -67.10180861693911, -17.611691903243802 ], [ -67.098096810293498, -17.615014999278529 ], [ -67.094805151633821, -17.617961764173579 ], [ -67.091468653877726, -17.620948515548204 ], [ -67.087914330027957, -17.624130075750706 ], [ -67.084308906358615, -17.627357186584696 ], [ -67.080695383697346, -17.630591350261696 ], [ -67.077620893084884, -17.633342911772516 ], [ -67.073627481132604, -17.636916675652884 ], [ -67.070202261714314, -17.639981757097424 ], [ -67.066049990861998, -17.643697219422823 ], [ -67.063141309317132, -17.646299756826902 ], [ -67.060192507752674, -17.6489380765668 ], [ -67.056837721639312, -17.651939466391191 ], [ -67.053076044879191, -17.655304685038381 ], [ -67.050421557850058, -17.657679272287552 ], [ -67.04791990790423, -17.659917047883919 ], [ -67.044247104205084, -17.663202276847372 ], [ -67.04358511241351, -17.66788312365648 ], [ -67.043111428249219, -17.671232335750815 ], [ -67.042470042778447, -17.675766915129898 ], [ -67.041679689861382, -17.681354297590612 ], [ -67.041824177767538, -17.685432978225528 ], [ -67.041944432442421, -17.688827831975544 ], [ -67.042087980980995, -17.692880436586403 ], [ -67.042230077955864, -17.696891873174611 ], [ -67.042787734318736, -17.701412643901545 ], [ -67.043315487878459, -17.705690826316587 ], [ -67.04075267402601, -17.708873998172045 ], [ -67.038394016466455, -17.711803434330658 ], [ -67.038251538087465, -17.711665940977557 ], [ -67.037994169607472, -17.711659237977706 ] ] ] } },
{ "type": "Feature", "properties": { "OBJECTID_1": 32, "fid_1": 227, "OBJECTID": 228.0, "Codigo": "TCO-CMI069", "SHAPE_Leng": 0.13413155166, "AREA": "ORURO", "PROPIETARI": "ENDE DEORURO", "STI": "NO", "TRAMO": "LT1 Tap Colquiri - Cruz Milagrosa en 69 kV", "TIPO": "Conductor Ibis (397) T1", "N_CIRCU": 1.0, "Un": 69.0, "Long": 13.6, "Pn": 51.0, "NODO_1": "TCO06901", "INTERR_1": null, "NODO_2": "CMI06901", "INTERR_2": null, "In_": 452.0, "Sbase": 100.0, "R1": 1.974862842, "X1": 5.542565794, "C1": 1.2528e-07, "R0": 4.779815453, "X0": 18.16226284, "C0": 7.2e-08, "Zc": 375.265603, "Sn": 54.0, "SOBCAR15": 68.0, "SOBCAR30": 0.0, "R11": 4.148000089, "X11": 11.64160007, "Qvacio": 0.187383575, "Shape_Le_1": 9665.5903817899998 }, "geometry": { "type": "MultiLineString", "coordinates": [ [ [ -67.188507462564587, -17.385340826742414 ], [ -67.190399955204768, -17.385119754999483 ], [ -67.204926174634437, -17.383423294785988 ], [ -67.212655260996229, -17.382520645568171 ], [ -67.21544974015157, -17.382194290280005 ], [ -67.216184059036777, -17.382398708451671 ], [ -67.22788306524437, -17.385655450431713 ], [ -67.254133359928687, -17.392962944929177 ], [ -67.261294311662411, -17.394956392605639 ], [ -67.267402548169585, -17.396656789381218 ], [ -67.272882425203122, -17.39818226466965 ], [ -67.273805859416512, -17.398439328026754 ], [ -67.275258497878525, -17.398755592418489 ], [ -67.27595130965797, -17.398890560254515 ], [ -67.276787140388649, -17.399078490217306 ] ] ] } },
{ "type": "Feature", "properties": { "OBJECTID_1": 33, "fid_1": 234, "OBJECTID": 235.0, "Codigo": "JER-ECE11501", "SHAPE_Leng": 0.00357469523, "AREA": "ORURO", "PROPIETARI": "ENDE DEORURO", "STI": "NO", "TRAMO": "LT1 Jeruyo - ECEBOL en 115 kV", "TIPO": "Conductor Ibis 397.5 MCM", "N_CIRCU": 1.0, "Un": 115.0, "Long": 0.41, "Pn": 74.0, "NODO_1": "JER11501", "INTERR_1": "A293", "NODO_2": "ECE11501", "INTERR_2": null, "In_": 392.0, "Sbase": 100.0, "R1": 0.05907881, "X1": 0.1676019, "C1": 3.67e-09, "R0": 0.156764, "X0": 0.486912, "C0": 2.0000000000000001e-09, "Zc": 381.3441756, "Sn": 78.0, "SOBCAR15": 78.0, "SOBCAR30": 0.0, "R11": 0.044672068, "X11": 0.126731115, "Qvacio": 0.015241945, "Shape_Le_1": 388.2324805 }, "geometry": { "type": "MultiLineString", "coordinates": [ [ [ -67.276870198776948, -17.396558659326292 ], [ -67.275980071346098, -17.397017117981022 ], [ -67.274458560350666, -17.399092592666239 ] ] ] } },
{ "type": "Feature", "properties": { "OBJECTID_1": 34, "fid_1": 250, "OBJECTID": 251.0, "Codigo": "PAG-ORU11501", "SHAPE_Leng": 0.36901481607999997, "AREA": "CENTRAL", "PROPIETARI": "ENDE TRANSMISI N", "STI": "SI", "TRAMO": "LT1 Pagador - Solar Oruro I en 115 kV", "TIPO": "Conductor ACSR Ibis 397.5 MCM", "N_CIRCU": 2.0, "Un": 115.0, "Long": 40.92, "Pn": 73.15, "NODO_1": "PAG11501", "INTERR_1": "A2102", "NODO_2": "ORU11501", "INTERR_2": "A2111", "In_": 386.0, "Sbase": 100.0, "R1": 5.900664, "X1": 16.769016, "C1": 3.6468e-07, "R0": 14.788488, "X0": 43.534788, "C0": 2.23e-07, "Zc": 382.5801846, "Sn": 77.0, "SOBCAR15": 89.0, "SOBCAR30": 80.0, "R11": 4.461749716, "X11": 12.67978526, "Qvacio": 1.515159367, "Shape_Le_1": 39453.758348700001 }, "geometry": { "type": "MultiLineString", "coordinates": [ [ [ -67.107865820710572, -17.814951066622449 ], [ -67.109328802193815, -17.813067919800705 ], [ -67.109155037367543, -17.81165681224627 ], [ -67.117661450002515, -17.81447646240148 ], [ -67.121250795352552, -17.812189045268749 ], [ -67.151994353262623, -17.766882549061723 ], [ -67.158727482112766, -17.765021486843157 ], [ -67.187599804423058, -17.769889594413222 ], [ -67.27619427204219, -17.779137495556714 ], [ -67.327695653238933, -17.796580270230432 ], [ -67.407794178325929, -17.800908142087337 ], [ -67.422023551458054, -17.792845855928789 ], [ -67.433288893539824, -17.775180496187662 ] ] ] } },
{ "type": "Feature", "properties": { "OBJECTID_1": 35, "fid_1": 251, "OBJECTID": 252.0, "Codigo": "PAG-VIN23001", "SHAPE_Leng": 0.08755015677, "AREA": "CENTRAL", "PROPIETARI": "ENDE TRANSMISI N", "STI": "SI", "TRAMO": "LT1 Pagador - Vinto en 230 kV", "TIPO": "Conductor AAAC PARAKEET 2x556,5 MCM", "N_CIRCU": 1.0, "Un": 230.0, "Long": 24.79, "Pn": 229.9, "NODO_1": "PAG23001", "INTERR_1": null, "NODO_2": "VIN23001", "INTERR_2": null, "In_": 607.0, "Sbase": 100.0, "R1": 1.28427074, "X1": 7.75701411, "C1": 2.8923e-07, "R0": 6.69828279, "X0": 23.73426827, "C0": 1.74e-07, "Zc": 292.1814265, "Sn": 242.0, "SOBCAR15": 266.0, "SOBCAR30": 259.0, "R11": 0.242773297, "X11": 1.466354274, "Qvacio": 4.806678151, "Shape_Le_1": 9282.7373656700001 }, "geometry": { "type": "MultiLineString", "coordinates": [ [ [ -67.020315869684254, -17.815140883057325 ], [ -67.107865820710572, -17.814951066622449 ] ] ] } },
{ "type": "Feature", "properties": { "OBJECTID_1": 36, "fid_1": 279, "OBJECTID": 280.0, "Codigo": "PAG-ORU11502", "SHAPE_Leng": 0.36901481607999997, "AREA": "CENTRAL", "PROPIETARI": "ENDE TRANSMISI4N", "STI": "SI", "TRAMO": "LT2 Pagador - Solar Oruro II en 115 kV", "TIPO": "Conductor ACSR Ibis 397.5 MCM", "N_CIRCU": 2.0, "Un": 115.0, "Long": 40.92, "Pn": 73.15, "NODO_1": "PAG11501", "INTERR_1": "A2103", "NODO_2": "ORU11501", "INTERR_2": "A2112", "In_": 386.0, "Sbase": 100.0, "R1": 5.900664, "X1": 16.769016, "C1": 3.6468e-07, "R0": 14.788488, "X0": 43.534788, "C0": 2.23e-07, "Zc": 382.5801846, "Sn": 77.0, "SOBCAR15": 89.0, "SOBCAR30": 80.0, "R11": 4.461749716, "X11": 12.67978526, "Qvacio": 1.515159367, "Shape_Le_1": 39453.758348700001 }, "geometry": { "type": "MultiLineString", "coordinates": [ [ [ -67.107865820710572, -17.814951066622449 ], [ -67.109328802193815, -17.813067919800705 ], [ -67.109155037367543, -17.81165681224627 ], [ -67.117661450002515, -17.81447646240148 ], [ -67.121250795352552, -17.812189045268749 ], [ -67.151994353262623, -17.766882549061723 ], [ -67.158727482112766, -17.765021486843157 ], [ -67.187599804423058, -17.769889594413222 ], [ -67.27619427204219, -17.779137495556714 ], [ -67.327695653238933, -17.796580270230432 ], [ -67.407794178325929, -17.800908142087337 ], [ -67.422023551458054, -17.792845855928789 ], [ -67.433288893539824, -17.775180496187662 ] ] ] } },
{ "type": "Feature", "properties": { "OBJECTID_1": 37, "fid_1": 284, "OBJECTID": 286.0, "Codigo": "CRC-TCO069", "SHAPE_Leng": 0.27625770714999998, "AREA": "ORURO", "PROPIETARI": "ELFEO", "STI": "NO", "TRAMO": "LT1 Caracollo - Tap Colquiri en 69 kV", "TIPO": "Conductor Penguin (4/0) H1", "N_CIRCU": 1.0, "Un": 69.0, "Long": 32.8, "Pn": 31.0, "NODO_1": "CRC06901", "INTERR_1": null, "NODO_2": "TCO06901", "INTERR_2": null, "In_": 276.0, "Sbase": 100.0, "R1": 9.0651344, "X1": 15.5067674, "C1": 2.8684e-07, "R0": 18.6705852, "X0": 44.9508863, "C0": 2.05e-07, "Zc": 414.8258799, "Sn": 33.0, "SOBCAR15": 42.0, "SOBCAR30": 0.0, "R11": 19.04039992, "X11": 32.57039992, "Qvacio": 0.429030105, "Shape_Le_1": 30357.234180399999 }, "geometry": { "type": "MultiLineString", "coordinates": [ [ [ -67.276787140388649, -17.399078490217306 ], [ -67.276708210701784, -17.40000597604071 ], [ -67.275534025201893, -17.403781832133447 ], [ -67.272713025539346, -17.412698693589174 ], [ -67.270722433279687, -17.419028711680994 ], [ -67.269506081844767, -17.4228406176085 ], [ -67.268122944063904, -17.427192537643386 ], [ -67.266136014810385, -17.433543395150803 ], [ -67.26319229486981, -17.442935033289036 ], [ -67.26127087122066, -17.446026545913853 ], [ -67.260740137272748, -17.447395336808899 ], [ -67.257468455453761, -17.453128351065118 ], [ -67.25390398026957, -17.45944328665087 ], [ -67.251564573015315, -17.463627804806237 ], [ -67.25081044605092, -17.464963999783986 ], [ -67.248020046984408, -17.46928557943744 ], [ -67.245883994548166, -17.472612394287264 ], [ -67.243900652561081, -17.475709702570189 ], [ -67.24007118161127, -17.483352522620091 ], [ -67.237545600468948, -17.488402663893801 ], [ -67.231852467540861, -17.499736863872812 ], [ -67.229988063419867, -17.503623602400122 ], [ -67.227159749367146, -17.509090135890297 ], [ -67.225813106208847, -17.511736363637198 ], [ -67.223604259184143, -17.516153030935488 ], [ -67.22003207481643, -17.523231933849154 ], [ -67.216873529877432, -17.529392849361919 ], [ -67.215975578676336, -17.531652670174509 ], [ -67.214748267354452, -17.533882411399578 ], [ -67.212924747017155, -17.537362693436297 ], [ -67.21046982501565, -17.542307160896261 ], [ -67.207084156575306, -17.548916636938749 ], [ -67.203549660185317, -17.555926972957369 ], [ -67.199024964185796, -17.564810615669163 ], [ -67.196040855860403, -17.570369464288152 ], [ -67.194446328213914, -17.573942199065321 ], [ -67.190258729693682, -17.583463037054823 ], [ -67.187993354058179, -17.588637583342511 ], [ -67.186687007536477, -17.591638100145282 ], [ -67.181485602286045, -17.603504069349022 ], [ -67.176395644780442, -17.614869217039505 ], [ -67.170352218452749, -17.628464891986919 ], [ -67.163032514983868, -17.645030580927656 ], [ -67.161270389897581, -17.649211249666482 ] ] ] } }
]
}
